X;Y;region;departement;commune;site;start;end;period;theme;type
831470;6881060;Champagne-Ardenne;Marne;Dampierre-le-Château;Liévaux;2001-07-30;2002-01-19;#Néolithique#Protohistoire;#Habitats, architecture, édifices;fouille
448620;6911591;Basse-Normandie;Calvados;Thaon;Éléazar;2002-01-20;2002-01-24;#Protohistoire;;fouille
938295;6671971;Franche-Comté;Doubs;Ornans;La Fontaine au Malade;2002-01-09;2002-01-25;#Moyen Âge;;fouille
844916,38;6838098,42;Champagne-Ardenne;Haute-Marne;Saint-Dizier;Les Crassées;2001-12-17;2002-02-22;#Moyen Âge;#Arts, biens de prestige#Cultes et pratiques funéraires#Organisation sociale et politique;fouille
525664;6701622;Centre;Indre-et-Loire;Tours;Lycée Descartes;1999-09-01;2002-02-28;#Antiquité#Moyen Âge;#Cultes et pratiques funéraires#Habitats, architecture, édifices#Organisation sociale et politique;fouille
927843;6686329;Franche-Comté;Doubs;Besançon;Parking des Remparts dérasés;2001-06-01;2002-02-28;#Protohistoire#Antiquité#Moyen Âge#Moderne, Contemporain;#Cultes et pratiques funéraires#Habitats, architecture, édifices#Industrie, artisanat#Peuplement, occupation espace;fouille
686536;6863407;Ile-de-France;Seine-et-Marne;Magny-le-Hongre;Courtalin;2001-12-03;2002-02-28;#Protohistoire#Antiquité#Moyen Âge;;fouille
679684;6874182;Ile-de-France;Seine-et-Marne;Messy;La Mare au Roi;2001-12-01;2002-03-01;#Protohistoire#Antiquité;#Habitats, architecture, édifices;fouille
679304;6872103;Ile-de-France;Seine-et-Marne;Claye-Souilly;Les Monts Gardés 3;2001-12-01;2002-03-21;#Protohistoire#Antiquité;#Cultes et pratiques funéraires#Échange et transport#Habitats, architecture, édifices#Industrie, artisanat;fouille
688152,561;7024497,07;Nord-Pas-de-Calais;Pas-de-Calais;Saint-Laurent-Blangy;ZAC Actiparc;2001-04-01;2002-04-01;#Protohistoire#Antiquité;;fouille
525467;6701604;Centre;Indre-et-Loire;Tours;Hôtel de police Nord;2001-11-01;2002-04-30;#Antiquité#Moyen Âge;#Archéologie des conflits#Cultes et pratiques funéraires#Habitats, architecture, édifices;fouille
575110;6690727;Centre;Loir-et-Cher;Saint-Romain-sur-Cher;Les Cormins;2001-11-15;2002-04-30;#Néolithique#Protohistoire#Antiquité#Moyen Âge;;fouille
788030;6894820;Champagne-Ardenne;Marne;Val-de-Vesle;Moncheux;2001-11-13;2002-05-01;#Protohistoire#Antiquité#Moderne, Contemporain;#Arts, biens de prestige#Cultes et pratiques funéraires;fouille
678997;6872366;Ile-de-France;Seine-et-Marne;Claye-Souilly;Les Monts Gardés 1;2002-03-25;2002-05-17;#Néolithique#Protohistoire#Antiquité#Moyen Âge;#Habitats, architecture, édifices;fouille
931300;6881000;Lorraine;Moselle;Sillegny;Rue du Stade;2002-04-02;2002-05-24;#Protohistoire#Antiquité#Moyen Âge#Moderne, Contemporain;;fouille
766975;6904970;Champagne-Ardenne;Marne;Vrigny;Les Robogniers 1;2001-12-02;2002-05-30;#Néolithique#Protohistoire#Antiquité#Moderne, Contemporain;#Arts, biens de prestige#Cultes et pratiques funéraires;fouille
666950;6837818;Ile-de-France;Seine-et-Marne;Lieusaint;Jardin de la Méridienne;2002-01-01;2002-06-01;#Protohistoire#Antiquité;#Habitats, architecture, édifices#Peuplement, occupation espace;fouille
938695;6671919;Franche-Comté;Doubs;Ornans;Espace Courbet;2002-05-28;2002-06-10;#Moyen Âge;;fouille
798960;6914020;Champagne-Ardenne;Marne;Bétheniville;Mont-de-Merlan;2002-05-24;2002-06-13;#Protohistoire;;fouille
932100;6804400;Lorraine;Vosges;Mirecourt;Rue du Docteur-Joyeux;2002-05-03;2002-06-21;#Moyen Âge#Moderne, Contemporain;;fouille
722019;6770187;Bourgogne;Yonne;Saint-Julien-du-Sault;Les Sablons;2002-04-15;2002-06-25;#Néolithique#Protohistoire;;fouille
637102;6845957;Ile-de-France;Essonne;Saint-Aubin;L'Orme des Merisiers;2002-02-20;2002-06-28;#Protohistoire#Antiquité#Moyen Âge;;fouille
985825,13;6248158,18;Provences-Alpes-Côte-d'Azur;Var;Grimaud;Le Château;2002-06-17;2002-06-28;#Moyen Âge#Moderne, Contemporain;;fouille
722228,249;6883219,838;Picardie;Aisne;Essômes-sur-Marne;Ferme de La Cense;2001-10-16;2002-06-30;#Moyen Âge#Moderne, Contemporain;#Cultes et pratiques funéraires#Habitats, architecture, édifices;fouille
678304;6787979;Ile-de-France;Seine-et-Marne;Souppes-sur-Loing;À l'est de Beaumoulin;2002-04-15;2002-07-26;#Néolithique#Protohistoire;;fouille
858800;6879500;Lorraine;Meuse;Nubécourt;Aux Villées;2001-09-01;2002-07-31;#Néolithique#Protohistoire#Antiquité#Moyen Âge#Autres périodes;#Habitats, architecture, édifices#Industrie, artisanat;fouille
666469;6838210;Ile-de-France;Seine-et-Marne;Lieusaint;ZAC de la Pyramide, lot C3;2002-06-01;2002-08-01;#Protohistoire;#Habitats, architecture, édifices;fouille
212620;6817403;Bretagne;Finistère;Carhaix-Plouguer;5, rue du Docteur-Menguy;2002-07-01;2002-08-09;#Antiquité#Autres périodes;;fouille
860500;6876400;Lorraine;Meuse;Beausite;La Hachie;2001-09-01;2002-08-12;#Néolithique#Protohistoire#Antiquité#Moyen Âge;;fouille
864765,147;6877794,702;Lorraine;Meuse;Les Trois-Domaines;La Hachie;2001-09-10;2002-08-15;#Néolithique#Protohistoire#Antiquité#Moyen Âge;#Habitats, architecture, édifices;fouille
927300;6874900;Lorraine;Meurthe-et-Moselle;Lesménils;Notre Dame - Chêne Brûlé;2002-05-15;2002-08-15;#Antiquité;#Échange et transport#Habitats, architecture, édifices;fouille
561975;6911433;Haute-Normandie;Eure;Criquebeuf-sur-Seine;Les Brûlins;2002-07-16;2002-08-15;#Protohistoire;;fouille
603689;6640002;Centre;Indre;Montierchaume;La Fleuranderie;2002-07-08;2002-08-28;#Protohistoire#Antiquité#Autres périodes;;fouille
883800;6877800;Lorraine;Meuse;Lacroix-sur-Meuse;La Finotte;2002-06-24;2002-08-30;#Néolithique#Protohistoire;#Habitats, architecture, édifices;fouille
884100;6878100;Lorraine;Meuse;Lacroix-sur-Meuse;Les Battants;2002-06-24;2002-08-31;#Protohistoire#Antiquité;#Cultes et pratiques funéraires#Échange et transport;fouille
623669;6650417;Centre;Indre;Issoudun;Centre de l'image et du multimédia;2002-05-20;2002-09-06;#Moyen Âge#Moderne, Contemporain;;fouille
602730;6471186;Limousin;Corrèze;Naves;Les Arènes de Tintignac - fouille 2002;2002-05-13;2002-09-27;#Protohistoire#Antiquité;;fouille
478011,652;6509980,464;Poitou-Charentes;Charente;Angoulême;Abbaye Saint-Cybard;2002-04-15;2002-09-30;#Moyen Âge#Moderne, Contemporain;;fouille
831940;6841530;Champagne-Ardenne;Haute-Marne;Perthes;La Pièce des Essarts;2002-04-15;2002-09-30;#Protohistoire#Antiquité#Moyen Âge#Moderne, Contemporain;;fouille
632528,616;6970372,288;Picardie;Somme;Fresnoy-au-Val;La Trannoye;2002-05-02;2002-09-30;#Néolithique;;fouille
666885;6837798;Ile-de-France;Seine-et-Marne;Lieusaint;ZAC de la Pyramide, lot C1;2002-07-15;2002-10-04;#Protohistoire#Antiquité;#Habitats, architecture, édifices;fouille
700608;6873137;Ile-de-France;Seine-et-Marne;Changis-sur-Marne;Les Pétreaux 1;2002-05-29;2002-10-10;#Protohistoire;;fouille
496567;6662172;Centre;Indre-et-Loire;Richelieu;Carrefour RD749;2002-10-01;2002-10-22;#Moyen Âge;;fouille
811500,63;6303961,734;Languedoc-Roussillon;Gard;Nîmes;Magaille Est;2002-05-06;2002-10-25;#Protohistoire#Antiquité#Autres périodes;;fouille
525450;6702118;Centre;Indre-et-Loire;Tours;Parking Anatole-France;2002-08-19;2002-10-25;#Antiquité#Moyen Âge#Moderne, Contemporain;;fouille
701184,699;7050258,67;Nord-Pas-de-Calais;Nord;Seclin;Le Petit Marais;2002-08-26;2002-10-25;#Antiquité#Moyen Âge;;fouille
911600;6878700;Lorraine;Meurthe-et-Moselle;Jaulny;Le Fey;2002-10-14;2002-10-30;#Antiquité;#Cultes et pratiques funéraires;fouille
773045,12;6274642,69;Languedoc-Roussillon;Hérault;Lattes;Le Castrum;2002-09-30;2002-11-15;#Autres périodes;;fouille
775850;6906890;Champagne-Ardenne;Marne;Reims;30-32 et 34 rue de l'Écu;2002-09-30;2002-11-15;#Protohistoire#Antiquité#Moderne, Contemporain;#Habitats, architecture, édifices;fouille
506666;6935633;Haute-Normandie;Seine-Maritime;Saint-Vigor-d'Ymonville;La Mare des Mares (carrière Lafarge tranche 4);2002-03-04;2002-11-16;#Néolithique#Protohistoire#Antiquité;;fouille
651793;6860420;Ile-de-France;Paris;Paris;64 rue Gay-Lussac - 3 rue des Ursulines;2002-09-23;2002-11-19;#Antiquité#Moderne, Contemporain;;fouille
691149;6878713;Ile-de-France;Seine-et-Marne;Barcy;Le Marais de Narcy;2002-07-29;2002-11-28;#Antiquité;#Habitats, architecture, édifices#Industrie, artisanat;fouille
941500;6879400;Lorraine;Moselle;Solgne;Poirier Gaillard;2002-10-01;2002-11-30;#Antiquité;#Échange et transport#Habitats, architecture, édifices#Peuplement, occupation espace;fouille
574439;6278885;Midi-Pyrénées;Haute-Garonne;Toulouse;Place des Carmes;2002-07-01;2002-12-01;#Protohistoire#Antiquité#Moyen Âge#Moderne, Contemporain;;fouille
922000;6876700;Lorraine;Meurthe-et-Moselle;Vandières;Bêtes aux Champs;2002-11-26;2002-12-09;#Protohistoire#Antiquité;#Habitats, architecture, édifices;fouille
717113,089;6520647,161;Auvergne;Puy-de-Dôme;Pont-du-Château;Champ Lamet;2002-11-13;2002-12-13;#Antiquité;;fouille
638995,884;6960165,356;Picardie;Somme;Conty;ZAC  Henri-Dunant;2002-11-18;2002-12-20;#Néolithique;;fouille
736029,316;6918255,907;Picardie;Aisne;Vasseny;Dessus des Groins;2002-10-07;2002-12-22;#Protohistoire;#Cultes et pratiques funéraires;fouille
525653,81;6701812,14;Centre;Indre-et-Loire;Tours;Temple de la rue Nationale;1951-01-01;2002-12-31;#Antiquité#Moyen Âge;#Archéologie des conflits#Cultes et pratiques funéraires#Organisation sociale et politique;fouille
743356,912;6892529,784;Picardie;Aisne;Ronchères;Le Bois de la Forge;2002-06-01;2002-12-31;#Protohistoire#Antiquité;#Habitats, architecture, édifices#Industrie, artisanat;fouille
567010;6877010;Haute-Normandie;Eure;Guichainville;Le Long Buisson 2;2002-08-19;2003-01-01;#Autres périodes;;fouille
775475;6906150;Champagne-Ardenne;Marne;Reims;20  rue de Contrai;2002-09-16;2003-01-03;#Protohistoire#Antiquité#Moyen Âge#Moderne, Contemporain;;fouille
790181,031;6588974,37;Bourgogne;Saône-et-Loire;Nochize;Ancienne église;2003-01-15;2003-01-16;#Moderne, Contemporain;;fouille
170245;6775324;Bretagne;Finistère;Bénodet;Route de Kernéost;2003-01-06;2003-02-11;#Protohistoire#Moyen Âge;;fouille
919300;6879500;Lorraine;Meurthe-et-Moselle;Prény;Ferme de Tautecourt;2002-01-02;2003-02-28;#Néolithique#Protohistoire#Antiquité#Moyen Âge;#Cultes et pratiques funéraires#Habitats, architecture, édifices#Industrie, artisanat;fouille
773770;6901380;Champagne-Ardenne;Marne;Champfleury;RN 51;2002-10-01;2003-02-28;#Protohistoire#Antiquité;#Habitats, architecture, édifices#Industrie, artisanat;fouille
921100;6880200;Lorraine;Meurthe-et-Moselle;Pagny-sur-Moselle;Moulon 2 - Maladrie;2003-02-27;2003-03-12;#Antiquité;#Habitats, architecture, édifices#Industrie, artisanat;fouille
496262;6612714;Poitou-Charentes;Vienne;Poitiers;Rue de la Marne;2001-12-03;2003-03-14;#Antiquité#Moyen Âge#Moderne, Contemporain;;fouille
1047480,684;6818949,519;Alsace;Bas-Rhin;Gerstheim;Domaine de Bancalis;2003-03-04;2003-03-17;#Protohistoire;;fouille
565500;6881300;Haute-Normandie;Eure;Évreux;Le Clos-au-Duc;2002-08-05;2003-03-30;#Antiquité;;fouille
579245;6897795;Haute-Normandie;Eure;Aubevoye;Le Chemin Vert;2003-03-24;2003-03-31;#Antiquité#Moyen Âge;;fouille
666136;6838082;Ile-de-France;Seine-et-Marne;Lieusaint;Rond-Point Schumann;2002-11-20;2003-04-04;#Antiquité;#Échange et transport#Habitats, architecture, édifices;fouille
691025;6177436;Languedoc-Roussillon;Pyrénées-Orientales;Perpignan;Hôpital militaire;2003-03-10;2003-04-04;#Moyen Âge#Moderne, Contemporain;;fouille
749329,473;6570861,453;Auvergne;Allier;Saint-Prix;Les Jeanrais;2003-02-24;2003-04-18;#Moyen Âge;;fouille
453514;6895121;Basse-Normandie;Calvados;Saint-Martin-de-Fontenay;Le Diguet 1;2003-04-04;2003-04-18;#Néolithique#Protohistoire;;fouille
715365,463;6512709,603;Auvergne;Puy-de-Dôme;Le Cendre;Gondole;2003-03-21;2003-04-22;#Protohistoire;;fouille
701284;6675238;Bourgogne;Nièvre;La Charité-sur-Loire;L'abbaye;2003-02-28;2003-04-30;#Moyen Âge;#Cultes et pratiques funéraires;fouille
931332,45;6266145,9;Provences-Alpes-Côte-d'Azur;Var;Saint-Maximin-la-Sainte-Baume;Mirade;2003-03-30;2003-04-30;#Moyen Âge;;fouille
1061389;6893110;Alsace;Bas-Rhin;Wissembourg;Rue des Carmes;2003-05-12;2003-05-23;#Moyen Âge#Moderne, Contemporain;;fouille
765689,916;6416460,572;Auvergne;Haute-Loire;Landos;Landos St-Félix;2003-03-25;2003-05-29;#Antiquité#Moyen Âge;#Arts, biens de prestige#Cultes et pratiques funéraires;fouille
657897;6868292;Ile-de-France;Seine-Saint-Denis;Bobigny;Hôpital Avicenne;2002-10-15;2003-05-31;#Protohistoire;;fouille
655240;6856656;Ile-de-France;Val-de-Marne;Ivry-sur-Seine;44-46, rue Raspail;2003-04-02;2003-06-14;#Néolithique#Protohistoire#Moyen Âge#Moderne, Contemporain;;fouille
774740;6906565;Champagne-Ardenne;Marne;Reims;11-19  rue Buirette;2003-05-19;2003-06-20;#Antiquité#Moyen Âge#Moderne, Contemporain;#Habitats, architecture, édifices;fouille
930111,5;6922382;Lorraine;Moselle;Thionville;24-26, rue de la Vieille-Porte;2003-05-12;2003-06-24;#Moyen Âge#Moderne, Contemporain#Autres périodes;;fouille
1051403;6867662;Alsace;Bas-Rhin;Haguenau;Rue des Anneaux;2003-05-26;2003-06-24;#Moyen Âge#Moderne, Contemporain;;fouille
892422,458;6247136,226;Provences-Alpes-Côte-d'Azur;Bouches-du-Rhône;Marseille;Espace Bargemon;2002-03-25 00:00:00;2003-06-25 00:00:00;#Antiquité#Moyen Âge#Moderne, Contemporain;#Habitats, architecture, édifices#Industrie, artisanat#Peuplement, occupation espace;fouille
417942,118;6422354,847;Aquitaine;Gironde;Bordeaux;Parking Place Jean-Jaurès;2002-01-28;2003-07-15;#Moyen Âge;;fouille
582000;6902000;Haute-Normandie;Eure;Bouafles;La Plante à Tabac;2003-05-05;2003-07-18;#Néolithique;;fouille
881056;6519336;Rhône-Alpes;Isère;Optevoz;Chemin de la Cure Bataillier;2003-07-17;2003-07-21;#Moyen Âge#Autres périodes;;fouille
719422,442;6915202,639;Picardie;Aisne;Ploisy;Zone 6 Bras De Fer;2003-06-23;2003-07-25;#Antiquité;;fouille
1010449;6802126;Alsace;Haut-Rhin;Sainte-Marie-aux-Mines;Mine Saint-Louis Eisenthür;2003-07-15;2003-08-02;#Moyen Âge#Moderne, Contemporain;;fouille
808779,33;6304316,46;Languedoc-Roussillon;Gard;Nîmes;78 avenue Jean-Jaurès;2003-07-07;2003-08-14;#Antiquité;;fouille
800920;6873135;Champagne-Ardenne;Marne;Saint-Memmie;9, rue du Pont-Alips;2003-07-29;2003-08-22;#Protohistoire#Antiquité#Moyen Âge#Moderne, Contemporain;;fouille
685195;6870835;Ile-de-France;Seine-et-Marne;Lesches;Les Prés de Refuge;2003-03-15;2003-08-31;#Protohistoire;;fouille
693037;6873841;Ile-de-France;Seine-et-Marne;Meaux;Zi Nord, Lot D1;2003-07-28;2003-08-31;#Antiquité#Moyen Âge#Moderne, Contemporain;;fouille
775480;6905810;Champagne-Ardenne;Marne;Reims;Rue de l'Équerre;2000-06-21;2003-09-01;#Antiquité;#Cultes et pratiques funéraires#Échange et transport#Habitats, architecture, édifices#Industrie, artisanat;fouille
844763;6427410;Rhône-Alpes;Ardèche;Saint-Péray;Chavas;2003-06-30;2003-09-09;#Protohistoire;;fouille
284116;6828878;Bretagne;Côtes-d'Armor;Quessoy;Le Clos Maillard;2003-08-04;2003-09-09;#Protohistoire;;fouille
775480;6906720;Champagne-Ardenne;Marne;Reims;19, rue Eugène-Desteuque;2003-02-10;2003-09-15;#Protohistoire#Antiquité#Moyen Âge#Moderne, Contemporain;;fouille
514500;6886300;Haute-Normandie;Eure;Capelle-les-Grands;Les Terres-Noires;2003-05-12;2003-09-15;#Antiquité#Moyen Âge;;fouille
347070;6966785;Basse-Normandie;Manche;Omonville-la-Petite;La Jupinerie;2003-08-25;2003-09-26;#Néolithique#Protohistoire;;fouille
775475,03;6906733,84;Champagne-Ardenne;Marne;Reims;19  rue Eugène-Desteuque;2003-02-01;2003-09-30;#Antiquité#Moyen Âge#Moderne, Contemporain;#Habitats, architecture, édifices;fouille
1030646;6845046;Alsace;Bas-Rhin;Marlenheim;Maison apprederis;2003-07-02;2003-09-30;#Protohistoire#Moyen Âge;;fouille
663452;6878154;Ile-de-France;Val-d'Oise;Roissy-en-France;Le Moulin;2003-09-08;2003-10-20;#Moderne, Contemporain;;fouille
573280;6902360;Haute-Normandie;Eure;Muids;Le Gorgeon des Rues 2;2003-08-25;2003-10-22;#Néolithique#Antiquité;;fouille
802760;6870050;Champagne-Ardenne;Marne;Sarry;Les Auges;2003-10-06;2003-10-24;#Protohistoire#Antiquité;;fouille
946600;6809300;Lorraine;Vosges;Vincey;Pontière de la Banvoye, Chemin des pêcheurs;2003-10-13;2003-10-27;#Protohistoire;;fouille
658143;6796782;Ile-de-France;Seine-et-Marne;Buthiers;Le dessus-de-Rochefort;2003-08-01;2003-10-30;#Protohistoire;;fouille
640181;6866813;Ile-de-France;Hauts-de-Seine;Nanterre;Avenue Jules-Quentin;2003-09-08;2003-10-31;#Protohistoire#Antiquité;;fouille
419091;6781027;Pays de la Loire;Mayenne;Laval;Saint-Tugal;2003-05-01;2003-11-01;#Moyen Âge;;fouille
987313;6711773;Franche-Comté;Doubs;Mandeure;Rue de la Récille;2003-09-08;2003-11-17;#Protohistoire#Antiquité#Moyen Âge;;fouille
1045419;6836607;Alsace;Bas-Rhin;Geispolsheim;Forlen;2003-10-20;2003-11-18;#Protohistoire#Moyen Âge;;fouille
608413;6246715;Languedoc-Roussillon;Aude;Mas-Saintes-Puelles;En Courdelle;2003-11-25;2003-11-26;#Moyen Âge;;fouille
1046255;6858287;Alsace;Bas-Rhin;Brumath;Rue du château;2003-10-13;2003-11-28;#Antiquité#Moyen Âge#Moderne, Contemporain;;fouille
653067;6868543;Ile-de-France;Seine-Saint-Denis;L'Île-Saint-Denis;66-70, Rue Du Landy;2003-11-17;2003-11-28;#Protohistoire;;fouille
601287,906;7064508,01;Nord-Pas-de-Calais;Pas-de-Calais;Saint-Étienne-au-Mont;Rue des Écoles;2003-11-03;2003-12-12;#Néolithique#Protohistoire#Antiquité#Moyen Âge#Moderne, Contemporain;;fouille
525011;6701461;Centre;Indre-et-Loire;Tours;Hôpital Clocheville;2003-01-01;2003-12-31;#Protohistoire#Antiquité#Moyen Âge;#Archéologie des conflits#Cultes et pratiques funéraires#Habitats, architecture, édifices#Peuplement, occupation espace;fouille
664054;6837047;Ile-de-France;Seine-et-Marne;Tigery;ZAC des Fossés Neufs;2003-01-01;2003-12-31;#Protohistoire#Antiquité#Moyen Âge;#Cultes et pratiques funéraires#Échange et transport#Habitats, architecture, édifices;fouille
774850;6906310;Champagne-Ardenne;Marne;Reims;15  rue Clovis;2003-10-01;2003-12-31;#Protohistoire#Antiquité#Moyen Âge#Moderne, Contemporain;#Habitats, architecture, édifices;fouille
417945,091;6422227,559;Aquitaine;Gironde;Bordeaux;12 place de la Bourse;2002-01-01 00:00:00;2003-12-31 00:00:00;#Moyen Âge;#Agriculture, élevage#Échange et transport;fouille
636624;6889325;Ile-de-France;Val-d'Oise;Hérouville;Église Saint-Clair;2003-03-01;2004-01-01;#Protohistoire#Antiquité#Moyen Âge#Moderne, Contemporain;;fouille
650084,626;6977329,274;Picardie;Somme;Amiens;38-42  rue Lamartine;2003-09-01;2004-01-01;#Antiquité#Moyen Âge;;fouille
668703;6834002;Ile-de-France;Seine-et-Marne;Savigny-le-Temple;ZAC de la Grange du Bois, lot A1;2003-12-01;2004-01-31;#Protohistoire;#Habitats, architecture, édifices;fouille
849061;6427479;Rhône-Alpes;Drôme;Valence;Place des Ormeaux;2003-09-01;2004-02-15;#Antiquité#Moyen Âge;#Cultes et pratiques funéraires#Habitats, architecture, édifices;fouille
735631,1;6280132,77;Languedoc-Roussillon;Hérault;Aigues-Vives;La Madeleine;2003-11-24;2004-02-27;#Antiquité#Moyen Âge;;fouille
651485;6861237;Ile-de-France;Paris;Paris;1 place Paul Claudel, théâtre national de l'Odéon;2003-06-16;2004-03-05;#Antiquité#Moderne, Contemporain;;fouille
892379,747;6247793,248;Provences-Alpes-Côte-d'Azur;Bouches-du-Rhône;Marseille;1bis, rue Malaval;2003-08-15;2004-03-15;#Antiquité#Moyen Âge#Moderne, Contemporain;;fouille
936093,97;6341879,65;Provences-Alpes-Côte-d'Azur;Alpes de Haute-Provence;Peipin;Les Granges;2003-11-01;2004-03-17;#Protohistoire;;fouille
583259;6807230;Centre;Eure-et-Loir;Mignières;Le Petit Cocurtin;2004-01-05;2004-03-19;#Protohistoire#Antiquité;;fouille
571776;6689401;Centre;Loir-et-Cher;Mareuil-sur-Cher;La Jahonnière;2004-02-04;2004-03-22;#Néolithique#Protohistoire#Moyen Âge#Moderne, Contemporain;#Habitats, architecture, édifices;fouille
775501,26;6276343,91;Languedoc-Roussillon;Hérault;Pérols;ZAC du Parc de l'Aéroport;2004-01-06;2004-03-24;#Protohistoire#Antiquité;;fouille
290918;6847386;Bretagne;Côtes-d'Armor;Pléneuf-Val-André;Piégu  1;2003-10-06;2004-03-30;#Néolithique;;fouille
714780,716;7002671,08;Nord-Pas-de-Calais;Nord;Masnières;Les Hauts de Masnières;2003-03-10;2004-04-02;#Protohistoire#Antiquité;;fouille
408340;6766890;Pays de la Loire;Mayenne;Cossé-le-Vivien;Guinefolle (2);2004-03-01;2004-04-30;#Protohistoire#Antiquité#Moyen Âge#Autres périodes;;fouille
565000;6926100;Haute-Normandie;Seine-Maritime;Le Mesnil-Esnard;Rue des Hautes Haies;2004-04-01;2004-04-30;#Néolithique;;fouille
565400;6884600;Haute-Normandie;Eure;Gravigny;Les Coudrettes;2004-04-15;2004-04-30;#Protohistoire;;fouille
290908;6847381;Bretagne;Côtes-d'Armor;Pléneuf-Val-André;Piégu 2;2004-04-19;2004-05-07;#Néolithique;;fouille
711133,13766561;7056373,1788966;Nord-Pas-de-Calais;Nord;Villeneuve-d'Ascq;La Haute Borne, lot C ouest;2004-04-05;2004-05-19;#Protohistoire#Antiquité;;fouille
366298;6788185;Bretagne;Ille-et-Vilaine;Brécé;Le Bourg;2004-05-11;2004-05-27;#Antiquité;;fouille
655356;6664675;Centre;Cher;Bourges;35, rue de Sarrebourg;2004-03-01;2004-05-31;#Protohistoire#Antiquité#Moyen Âge#Moderne, Contemporain;;fouille
782140;6276825;Languedoc-Roussillon;Hérault;Mauguio;La Font de Mauguio, Les Aires de Saint-Jacques;2004-05-10;2004-06-11;#Néolithique#Antiquité#Moyen Âge#Moderne, Contemporain;;fouille
1005300;6793600;Alsace;Haut-Rhin;Le Bonhomme;Le Cerisier;2004-06-16;2004-06-24;#Moyen Âge#Moderne, Contemporain;;fouille
840185;6520700;Rhône-Alpes;Rhône;Sainte-Foy-lès-Lyon;Angle rues Sergent M. Berthet/Saint-Pierre-de-Vaise;2004-03-29;2004-06-25;#Néolithique#Protohistoire#Antiquité;;fouille
548100;6896600;Haute-Normandie;Eure;Crosville-la-Vieille;Le Bout du Val;2004-06-02;2004-06-25;#Protohistoire;;fouille
711806;6653981;Bourgogne;Nièvre;Nevers;12, rue Saint-Genest;2003-10-01;2004-06-30;#Néolithique#Antiquité#Moyen Âge#Moderne, Contemporain;;fouille
312673;6682653;Pays de la Loire;Loire-Atlantique;Pornic;La Tocnaye;2004-04-01;2004-06-30;#Moyen Âge#Moderne, Contemporain;;fouille
669270;6837363;Ile-de-France;Seine-et-Marne;Moissy-Cramayel;Parc d'activités de Chanteloup;2004-04-26;2004-06-30;#Néolithique#Protohistoire#Antiquité;#Habitats, architecture, édifices;fouille
694930;6807022;Ile-de-France;Seine-et-Marne;Varennes-sur-Seine;Le Marais du Colombier;2004-05-04;2004-06-30;#Néolithique#Protohistoire#Antiquité#Moderne, Contemporain;;fouille
775845;6905730;Champagne-Ardenne;Marne;Reims;115  rue du Barbâtre;2004-06-01;2004-06-30;#Antiquité#Moyen Âge#Moderne, Contemporain;#Cultes et pratiques funéraires#Échange et transport#Habitats, architecture, édifices;fouille
723235,809;6919622,384;Picardie;Aisne;Soissons;Caserne Gouraud (2);2004-06-02;2004-07-15;#Antiquité;;fouille
842048;6519536;Rhône-Alpes;Rhône;Sainte-Foy-lès-Lyon;Cathédrale Saint-Jean;2004-02-01;2004-07-30;#Moyen Âge;;fouille
546450;6689991;Centre;Indre-et-Loire;Bléré;Le Chemin d'Espagne;2004-07-19;2004-08-13;#Antiquité#Moyen Âge#Moderne, Contemporain;#Échange et transport;fouille
1040007;6728515;Alsace;Haut-Rhin;Hégenheim;Rue de Hésingue;2004-07-19;2004-08-13;#Moyen Âge;;fouille
573931;6690162;Centre;Loir-et-Cher;Thésée;La Pichonnerie;2004-07-25;2004-09-10;#Néolithique#Protohistoire#Antiquité#Moyen Âge;#Habitats, architecture, édifices;fouille
704019,02;6251965,71;Languedoc-Roussillon;Hérault;Puisserguier;Nécropole de La Rouquette;2003-07-20;2004-09-15;#Protohistoire;#Cultes et pratiques funéraires;fouille
774635;6906765;Champagne-Ardenne;Marne;Reims;9-11, boulevard du Général Leclerc;2004-05-27;2004-09-16;#Antiquité#Moderne, Contemporain;#Échange et transport#Habitats, architecture, édifices;fouille
1028113;6811627;Alsace;Bas-Rhin;Dambach-la-Ville;Plateforme départementale d'activités de Dambach-la-Ville;2004-05-24;2004-09-30;#Antiquité;#Industrie, artisanat;fouille
1030804,284;6811500,037;Alsace;Bas-Rhin;Dambach-la-Ville;Wilmstein;2004-05-24;2004-09-30;#Antiquité;;fouille
710922,25064313;7056078,0962892;Nord-Pas-de-Calais;Nord;Villeneuve-d'Ascq;La Haute Borne, lot B;2004-08-23;2004-09-30;#Protohistoire#Antiquité;;fouille
774560;6907450;Champagne-Ardenne;Marne;Reims;17-19  rue Mont d'Arène et 6-8  rue Maucroix;2004-02-23;2004-10-01;#Protohistoire#Antiquité;#Cultes et pratiques funéraires#Échange et transport#Habitats, architecture, édifices;fouille
787050;6802020;Champagne-Ardenne;Aube;Bouranton;La Louvière;2004-08-09;2004-10-03;#Protohistoire#Antiquité#Moyen Âge#Moderne, Contemporain;;fouille
701764;6808822;Ile-de-France;Seine-et-Marne;Marolles-sur-Seine;La Croix Saint-Jacques (2);2004-08-09;2004-10-08;#Protohistoire;;fouille
543159;6690743;Centre;Indre-et-Loire;Athée-sur-Cher;Pièce de la Colasserie;2004-08-30;2004-10-08;#Protohistoire#Antiquité;#Habitats, architecture, édifices;fouille
650289;6862248;Ile-de-France;Paris;Paris;60 quai des Tuileries - Musée de l'Orangerie;2003-09-29;2004-10-18;#Moderne, Contemporain;;fouille
929013;6686536;Franche-Comté;Doubs;Besançon;Collège Lumière (1);2003-11-01;2004-10-29;#Antiquité;;fouille
929023;6686536;Franche-Comté;Doubs;Besançon;Collège Lumière (3);2003-11-01;2004-10-29;#Protohistoire#Antiquité;#Arts, biens de prestige#Habitats, architecture, édifices;fouille
929013;6686546;Franche-Comté;Doubs;Besançon;Collège Lumière;2003-11-01 00:00:00;2004-10-29;#Protohistoire#Antiquité#Moyen Âge#Moderne, Contemporain;#Habitats, architecture, édifices#Industrie, artisanat;fouille
602730;6471186;Limousin;Corrèze;Naves;Les Arènes de Tintignac  - fouille 2004;2004-09-01;2004-10-29;#Protohistoire#Antiquité;;fouille
636357;6280730;Midi-Pyrénées;Tarn;Castres;Empy Neuf;2004-10-11;2004-10-29;#Protohistoire#Antiquité#Moderne, Contemporain;;fouille
1043030,621;6821169,254;Alsace;Bas-Rhin;Osthouse;Lotissement Zorn de Bulach;2004-09-13;2004-11-22;#Protohistoire#Antiquité#Moyen Âge#Moderne, Contemporain;;fouille
893052,598;6247663,967;Provences-Alpes-Côte-d'Azur;Bouches-du-Rhône;Marseille;Rue Longue-des-Capucins;2004-09-30 00:00:00;2004-11-22 00:00:00;#Paléolithique, Mésolithique#Antiquité;#Habitats, architecture, édifices#Industrie, artisanat;fouille
679090;6687533;Centre;Cher;Neuvy-Deux-Clochers;Tour de Vesvre 2;2003-09-01;2004-11-30;#Moyen Âge;;fouille
776880;6905920;Champagne-Ardenne;Marne;Reims;Place du 11 Novembre;2004-11-01;2004-11-30;#Antiquité;#Cultes et pratiques funéraires;fouille
700391,662;6874035,536;Ile-de-France;Seine-et-Marne;Changis-sur-Marne;5000 ans de vie rurale à Changis-sur-Marne;1995-07-24;2004-12-04;#Néolithique#Protohistoire;;fouille
700948;6873503;Ile-de-France;Seine-et-Marne;Changis-sur-Marne;La Pelle à four;2004-05-15;2004-12-07;#Protohistoire;;fouille
701095;6873399;Ile-de-France;Seine-et-Marne;Changis-sur-Marne;La Pelle à four sud;2004-09-01;2004-12-07;#Protohistoire;;fouille
430765;6802026;Pays de la Loire;Mayenne;Moulay;La Garde;2004-11-02;2004-12-09;#Protohistoire#Antiquité;;fouille
380882;6568197;Poitou-Charentes;Charente-Maritime;Aytré;ZAC Bongraine;2004-09-13;2004-12-17;#Antiquité;;fouille
355009;6797669;Bretagne;Ille-et-Vilaine;Betton;La Touche Nicoul;2004-11-29;2004-12-17;;;fouille
352069;6789660;Bretagne;Ille-et-Vilaine;Rennes;La visitation, un quartier de la ville antique de Rennes;2004-07-17;2004-12-20;#Antiquité;;fouille
695131,682;7052138,23;Nord-Pas-de-Calais;Nord;Wavrin;Le Château du Bourg;2004-09-13;2004-12-20;#Protohistoire#Antiquité#Moyen Âge;;fouille
655719,768;6878685,925;Ile-de-France;Val-d'Oise;Villiers-le-Bel;69, rue Gambetta;2004-10-21;2004-12-24;#Protohistoire#Moyen Âge;;fouille
664121;6838511;Ile-de-France;Essonne;Tigery;ZAC de la Pépinière;2004-11-08;2004-12-24;#Moyen Âge#Moderne, Contemporain;;fouille
617539;6756326;Centre;Loiret;Orléans;8-10 rue Porte Madeleine;2004-11-22;2004-12-24;#Protohistoire#Antiquité#Moderne, Contemporain;#Cultes et pratiques funéraires#Habitats, architecture, édifices#Industrie, artisanat#Peuplement, occupation espace;fouille
617549;6756326;Centre;Loiret;Orléans;8-10, rue Porte-Madeleine;2004-11-22;2004-12-28;#Protohistoire#Antiquité#Moyen Âge#Moderne, Contemporain;;fouille
935500;6890900;Lorraine;Moselle;Peltre;Les Rouaux;2004-07-28;2004-12-31;#Antiquité;;fouille
543457;6690626;Centre;Indre-et-Loire;Athée-sur-Cher;Bussière;2004-11-29;2004-12-31;#Antiquité#Moyen Âge;#Habitats, architecture, édifices;fouille
666303;6835017;Ile-de-France;Seine-et-Marne;Lieusaint;ZAC du Carré Sénart, bureaux, parkings;2004-12-01;2004-12-31;#Néolithique#Protohistoire#Antiquité;#Cultes et pratiques funéraires#Habitats, architecture, édifices;fouille
212630;6817408;Bretagne;Finistère;Carhaix-Plouguer;Réserve Archéologique;2000-01-01;2005-01-01;#Antiquité#Moyen Âge#Moderne, Contemporain;;fouille
897608,54;6272726,15;Provences-Alpes-Côte-d'Azur;Bouches-du-Rhône;Aix-en-Provence;ZAC Sextius-Mirabeau îlot A;2004-05-02;2005-01-01;#Néolithique;;fouille
694020;151800;Languedoc-Roussillon;Hérault;Saint-André-de-Sangonis;Le Lagarel;2004-09-10;2005-01-15;#Néolithique#Antiquité#Moyen Âge#Moderne, Contemporain;;fouille
537819;6691502;Centre;Indre-et-Loire;Athée-sur-Cher;Le Brandon;2005-01-01;2005-02-01;#Protohistoire#Antiquité#Moderne, Contemporain;#Habitats, architecture, édifices;fouille
611016,366;6917131,949;Picardie;Oise;Sérifontaine;La Vigne;2005-01-31;2005-02-04;#Néolithique#Protohistoire;;fouille
892265,598;6246576,33;Provences-Alpes-Côte-d'Azur;Bouches-du-Rhône;Marseille;23 quai de Rive Neuve;2004-12-15 00:00:00;2005-02-14 00:00:00;#Antiquité#Moderne, Contemporain;#Cultes et pratiques funéraires#Habitats, architecture, édifices#Industrie, artisanat#Peuplement, occupation espace;fouille
538558;6691486;Centre;Indre-et-Loire;Athée-sur-Cher;La Tour du Brandon;2005-02-01;2005-03-01;#Protohistoire#Antiquité#Moderne, Contemporain;#Habitats, architecture, édifices;fouille
544653;6690256;Centre;Indre-et-Loire;Bléré;Les Fossés Blancs;2005-01-12;2005-03-07;#Protohistoire#Moyen Âge#Moderne, Contemporain;#Habitats, architecture, édifices;fouille
496136,134;6612599,318;Poitou-Charentes;Vienne;Poitiers;15  rue Arthur-Ranc;2005-02-14;2005-03-11;#Antiquité;;fouille
782879;6549464;Rhône-Alpes;Loire;Roanne;Centre ancien, place du Maréchal de Lattre de Tassigny;2004-09-06;2005-03-18;#Antiquité#Moyen Âge#Moderne, Contemporain;;fouille
538019;6691490;Centre;Indre-et-Loire;Athée-sur-Cher;L'Érable;2005-02-07;2005-03-25;#Protohistoire#Antiquité;#Habitats, architecture, édifices;fouille
341676;6840451;Bretagne;Ille-et-Vilaine;Lillemer;Les Hauts;2005-02-24;2005-03-25;#Néolithique;;fouille
572929;6689821;Centre;Loir-et-Cher;Mareuil-sur-Cher;Bagneux;2005-03-01;2005-03-30;#Néolithique;#Peuplement, occupation espace;fouille
573180;6689969;Centre;Loir-et-Cher;Mareuil-sur-Cher;La Croix de Bagneux;2004-09-13;2005-03-31;#Néolithique;#Habitats, architecture, édifices#Industrie, artisanat;fouille
892000,229;6247004,17;Provences-Alpes-Côte-d'Azur;Bouches-du-Rhône;Marseille;Collège du Vieux-Port;2005-01-03;2005-04-08;#Antiquité;#Habitats, architecture, édifices;fouille
892383,174;6247227,271;Provences-Alpes-Côte-d'Azur;Bouches-du-Rhône;Marseille;Hôtel-Dieu (place Daviel et rue des Belles-écuelles);2005-01-03 00:00:00;2005-04-08 00:00:00;#Paléolithique, Mésolithique#Antiquité#Moyen Âge#Moderne, Contemporain;#Cultes et pratiques funéraires#Échange et transport#Habitats, architecture, édifices;fouille
892000,229;6247004,17;Provences-Alpes-Côte-d'Azur;Bouches-du-Rhône;Marseille;Collège Vieux-Port;2005-03-01 00:00:00;2005-04-08 00:00:00;#Antiquité#Moyen Âge#Moderne, Contemporain;#Échange et transport#Habitats, architecture, édifices#Industrie, artisanat;fouille
541766;6691479;Centre;Indre-et-Loire;Athée-sur-Cher;Touche Morin;2005-01-20;2005-04-13;#Néolithique#Protohistoire#Antiquité;#Habitats, architecture, édifices;fouille
433922;6806290;Pays de la Loire;Mayenne;Aron;Le Panveau, La Davière;2005-03-07;2005-04-15;#Protohistoire;;fouille
548443;6689325;Centre;Indre-et-Loire;Bléré;Les Pentes du Vaugerin;2005-03-14;2005-04-15;#Protohistoire#Antiquité;#Habitats, architecture, édifices;fouille
561537;6689816;Centre;Loir-et-Cher;Faverolles-sur-Cher;La Chapelle de Senelles;2005-03-14;2005-04-15;#Antiquité#Moyen Âge;#Habitats, architecture, édifices#Industrie, artisanat;fouille
556628;6528105;Limousin;Haute-Vienne;Verneuil-sur-Vienne;La Rivaille;2005-03-29;2005-04-15;#Protohistoire;;fouille
863872,02;6330171,6;Provences-Alpes-Côte-d'Azur;Vaucluse;Carpentras;Boulevard Clemenceau;2005-02-28;2005-04-22;#Antiquité;;fouille
588643;6817431;Centre;Eure-et-Loir;Chartres;11-13, rue des Fileurs;2004-12-06;2005-04-29;#Antiquité#Moyen Âge;;fouille
540440;6691060;Centre;Indre-et-Loire;Athée-sur-Cher;Chomedormeau;2005-01-17;2005-04-29;#Néolithique#Protohistoire#Antiquité#Moyen Âge;#Cultes et pratiques funéraires#Habitats, architecture, édifices;fouille
565938;6690329;Centre;Loir-et-Cher;Angé;Le Bois de la Faix;2005-02-17;2005-04-30;#Protohistoire;#Habitats, architecture, édifices#Industrie, artisanat;fouille
678218,46;6985785,558;Picardie;Somme;Méaulte;Plateforme aéro-industrielle de Haute-Picardie;2005-04-11;2005-04-30;#Néolithique#Protohistoire#Antiquité#Moyen Âge;;fouille
536320;6691550;Centre;Indre-et-Loire;Truyes;Les Grandes Maisons;2005-04-21;2005-05-13;#Moyen Âge;#Cultes et pratiques funéraires#Habitats, architecture, édifices;fouille
928625;6686567;Franche-Comté;Doubs;Besançon;Place de la Révolution;2005-03-21;2005-05-17;#Antiquité#Moyen Âge#Moderne, Contemporain;#Habitats, architecture, édifices#Industrie, artisanat;fouille
559439;6689833;Centre;Loir-et-Cher;Épeigné-les-Bois;Le Marchais Rond - Les Allets;2005-03-21;2005-05-27;#Néolithique#Protohistoire#Antiquité#Moyen Âge;#Habitats, architecture, édifices;fouille
892024,94;6246354,07;Provences-Alpes-Côte-d'Azur;Bouches-du-Rhône;Marseille;"165 rue Sainte, 5&8209;7  rue du Commandant-Lamy";2005-05-09;2005-05-27;#Antiquité#Moderne, Contemporain;;fouille
571513;6689387;Centre;Loir-et-Cher;Mareuil-sur-Cher;Le Casseux;2005-04-04;2005-06-03;#Néolithique;#Habitats, architecture, édifices#Industrie, artisanat;fouille
900675,14;6263939,79;Provences-Alpes-Côte-d'Azur;Bouches-du-Rhône;Gardanne;Font-de-Garach;2005-05-17;2005-06-09;#Antiquité#Autres périodes;;fouille
1176503,61;6109391,62;Corse;Corse-du-Sud;Ajaccio;Espace Alban;2005-03-14;2005-06-10;#Antiquité#Moyen Âge;#Cultes et pratiques funéraires#Habitats, architecture, édifices;fouille
680551,2984309;7018705,4656371;Nord-Pas-de-Calais;Pas-de-Calais;Dainville;Gérico;2005-02-21;2005-06-17;#Protohistoire#Antiquité#Moderne, Contemporain;;fouille
926200;6902500;Lorraine;Moselle;Norroy-le-Veneur;ZAC du Centre Relais;2005-02-21;2005-06-20;#Moyen Âge;;fouille
844242,37;6340855,78;Provences-Alpes-Côte-d'Azur;Vaucluse;Orange;La Croix-Rouge;2005-06-01;2005-06-24;#Antiquité;;fouille
282415;6711640;Pays de la Loire;Loire-Atlantique;Piriac-sur-Mer;Z.A. du Pladreau - La villa du Pladreau à Piriac-sur-Mer;2005-04-01;2005-06-30;#Protohistoire#Antiquité#Moyen Âge;;fouille
567936;6689763;Centre;Loir-et-Cher;Angé;Preuilland-Le Petit Jardin;2005-02-01;2005-07-01;#Néolithique;#Habitats, architecture, édifices#Industrie, artisanat;fouille
657965;6857678;Ile-de-France;Val-de-Marne;Saint-Maurice;Les Serres de l'hôpital Esquirol;2005-05-10;2005-07-11;#Moderne, Contemporain;;fouille
1026810;6776632;Alsace;Haut-Rhin;Sainte-Croix-en-Plaine;Ancien échangeur, gendarmerie;2005-05-13;2005-07-17;#Protohistoire;;fouille
826803;6383106;Rhône-Alpes;Ardèche;Alba-la-Romaine;Le Clos;2005-07-20;2005-07-29;#Antiquité;;fouille
580848;6439008;Limousin;Corrèze;Nespouls;La Bille, El Barjou, Le Lacaud;2005-06-06;2005-08-05;#Antiquité;;fouille
774980;6907790;Champagne-Ardenne;Marne;Reims;12  rue Duquenelle;2005-07-18;2005-08-09;#Antiquité;#Cultes et pratiques funéraires#Échange et transport;fouille
730177,478;6466125,547;Auvergne;Haute-Loire;Brioude;Place Grégoire-de-Tours ;2005-10-15;2005-08-15;#Moyen Âge#Moderne, Contemporain;;fouille
547245;6689661;Centre;Indre-et-Loire;Sublaines;Le Grand Ormeau;2005-02-28;2005-08-27;#Néolithique#Protohistoire#Antiquité;#Cultes et pratiques funéraires#Habitats, architecture, édifices;fouille
895929,97;6272615,24;Provences-Alpes-Côte-d'Azur;Bouches-du-Rhône;Aix-en-Provence;ZAC de Ravanas;2005-07-05;2005-09-02;#Protohistoire#Antiquité;;fouille
532879;6692375;Centre;Indre-et-Loire;Esvres;Les Billettes;2005-05-17;2005-09-15;#Protohistoire#Antiquité;#Habitats, architecture, édifices;fouille
893115,19;6247671,481;Provences-Alpes-Côte-d'Azur;Bouches-du-Rhône;Marseille;53-63 rue Bernard-du-Bois;2005-06-19 00:00:00;2005-09-19 00:00:00;#Paléolithique, Mésolithique#Antiquité#Moderne, Contemporain;#Habitats, architecture, édifices#Industrie, artisanat;fouille
809451,85;6305271,77;Languedoc-Roussillon;Gard;Nîmes;Place du Chapitre et ses abords;2005-07-04;2005-09-27;#Antiquité#Moyen Âge#Moderne, Contemporain;;fouille
422487;6773139;Pays de la Loire;Mayenne;Entrammes;La Carie;2005-07-18;2005-11-10;#Protohistoire#Antiquité#Moyen Âge;;fouille
756542,738;6754579,48;Bourgogne;Yonne;Ligny-le-Châtel;La Coupe au Meunier, Le Ru Carbone;2005-03-01;2005-11-30;#Protohistoire#Antiquité#Moyen Âge;#Cultes et pratiques funéraires#Habitats, architecture, édifices;fouille
679090;6687543;Centre;Cher;Neuvy-Deux-Clochers;Tour de Vesvre 3;2005-05-01;2005-11-30;#Moyen Âge;;fouille
670892;6830059;Ile-de-France;Seine-et-Marne;Cesson;Plaine du Moulin à Vent, zone sud;2005-11-15;2005-12-01;#Protohistoire#Antiquité;;fouille
840962,075;6580396,596;Bourgogne;Côte-d'Or;Mâcon;Angle rue Tilladet et Epinoches;2005-09-26;2005-12-06;#Antiquité;;fouille
892374,575;6247606,146;Provences-Alpes-Côte-d'Azur;Bouches-du-Rhône;Marseille;Parking République;2005-05-11;2005-12-23;#Antiquité#Moyen Âge#Moderne, Contemporain;#Habitats, architecture, édifices;fouille
892374,575;6247606,146;Provences-Alpes-Côte-d'Azur;Bouches-du-Rhône;Marseille;Parking République;2005-05-11 00:00:00;2005-12-23 00:00:00;#Antiquité#Moyen Âge;#Habitats, architecture, édifices#Industrie, artisanat#Peuplement, occupation espace;fouille
618202;6755905;Centre;Loiret;Orléans;La Loire;1971-01-01;2005-12-31;#Antiquité#Moyen Âge#Moderne, Contemporain;#Archéologie des conflits#Cultes et pratiques funéraires#Habitats, architecture, édifices#Industrie, artisanat#Vie quotidienne, usages;fouille
525586,25;6702281,06;Centre;Indre-et-Loire;Tours;Pont 1, dit «de l'île Saint-Jacques»;2000-01-01;2005-12-31;#Antiquité;#Peuplement, occupation espace;fouille
775110;6906840;Champagne-Ardenne;Marne;Reims;5 et 7, rue de Pouilly;2005-09-12;2006-02-15;#Protohistoire#Antiquité#Moyen Âge#Moderne, Contemporain;#Échange et transport#Habitats, architecture, édifices;fouille
720792,752;6971502,293;Picardie;Aisne;Saint-Quentin;Angle des rues Voltaire et des Faucons;2005-02-01 00:00:00;2006-02-28 00:00:00;#Moyen Âge;#Arts, biens de prestige;fouille
931370;6895309;Lorraine;Moselle;Metz;Esplanade;2006-01-16;2006-03-01;;;fouille
326573;6830849;Bretagne;Côtes-d'Armor;Taden;Les Alleux;2005-10-07;2006-03-03;#Antiquité;;fouille
336162;6746750;Bretagne;Ille-et-Vilaine;Langon;La Lande du Moulin;2006-01-09;2006-03-09;#Néolithique;;fouille
349990;6691407;Pays de la Loire;Loire-Atlantique;Saint-Herblain;Zone d'aménagement d'Ar Mor;2004-11-14;2006-03-17;#Néolithique#Protohistoire#Antiquité#Moyen Âge;;fouille
501146;6621659;Poitou-Charentes;Vienne;Saint-Georges-lès-Baillargeaux;Les Varennes;2005-11-21;2006-03-24;#Néolithique#Protohistoire#Antiquité;;fouille
938227;6558676;Rhône-Alpes;Haute-savoie;Présilly;Eccorçon-Les Murailles;2005-10-01;2006-03-30;;;fouille
779935;6800295;Champagne-Ardenne;Aube;Troyes;Place de la Libération;2004-08-03;2006-03-31;#Antiquité#Moyen Âge#Moderne, Contemporain;;fouille
892731,472;6247032,248;Provences-Alpes-Côte-d'Azur;Bouches-du-Rhône;Marseille;République-Surverse Vieux-Port;2006-03-01;2006-04-01;#Antiquité#Moyen Âge#Moderne, Contemporain;#Habitats, architecture, édifices;fouille
892731,472;6247031,248;Provences-Alpes-Côte-d'Azur;Bouches-du-Rhône;Marseille;République surverse;2006-02-13 00:00:00;2006-04-14 00:00:00;#Antiquité#Moyen Âge#Moderne, Contemporain;#Archéologie des conflits#Peuplement, occupation espace;fouille
771192,053;6279887,489;Languedoc-Roussillon;Hérault;Montpellier;Rue Fontaine du Pila;2005-12-05;2006-04-15;#Néolithique;;fouille
780380;6800430;Champagne-Ardenne;Aube;Troyes;Troyes Campus;2006-01-09;2006-04-18;#Moyen Âge#Moderne, Contemporain;;fouille
1030615,91;6283308,47;Provences-Alpes-Côte-d'Azur;Alpes Maritimes;Antibes;Bas-Lauvert;2006-01-09;2006-04-21;#Antiquité;;fouille
619409;6756045;Centre;Loiret;Orléans;Rue de l'Abreuvoir;2006-02-13;2006-04-21;#Antiquité#Moyen Âge#Moderne, Contemporain;#Cultes et pratiques funéraires#Habitats, architecture, édifices;fouille
669591;6831560;Ile-de-France;Seine-et-Marne;Savigny-le-Temple;Le Mont Blanc;2004-08-01;2006-05-01;#Protohistoire#Antiquité;#Échange et transport#Habitats, architecture, édifices;fouille
585930;6895600;Haute-Normandie;Eure;Notre-Dame-de-l'Isle;La plaine du moulin à vent;2006-02-08;2006-05-08;#Protohistoire;;fouille
670321;6830101;Ile-de-France;Seine-et-Marne;Cesson;Plaine du Moulin à Vent (ext. sud bassin);2006-03-08;2006-05-08;#Protohistoire;#Habitats, architecture, édifices#Peuplement, occupation espace;fouille
671295;6831067;Ile-de-France;Seine-et-Marne;Cesson;Plaine du Moulin à Vent (protohistorique);2006-04-20;2006-05-31;#Protohistoire;#Habitats, architecture, édifices#Peuplement, occupation espace;fouille
574380;6278377;Midi-Pyrénées;Haute-Garonne;Toulouse;Cité Judiciaire;1999-06-01;2006-06-30;#Antiquité#Moyen Âge#Moderne, Contemporain;#Cultes et pratiques funéraires#Échange et transport#Habitats, architecture, édifices;fouille
837820;6378927;Rhône-Alpes;Drôme;Châteauneuf-du-Rhône;La Labre;2006-03-27;2006-06-30;#Protohistoire#Antiquité;;fouille
1019463;6800833;Alsace;Haut-Rhin;Bergheim;Lieux-dits Froen et Böckenbrück;2006-06-01;2006-06-30;#Antiquité;;fouille
670620;6831755;Ile-de-France;Seine-et-Marne;Cesson;Plaine du Moulin à Vent (gallo-romain);2006-03-20;2006-07-21;#Protohistoire#Antiquité;#Habitats, architecture, édifices;fouille
754227,303;6920714,881;Picardie;Aisne;Beaurieux;La Plaine;2006-05-22;2006-07-21;#Néolithique;;fouille
627940;6778029;Centre;Loiret;Neuville-aux-Bois;La Grande Route (A19-C1);2006-04-01;2006-07-31;#Protohistoire;;fouille
648490;6778991;Centre;Loiret;Courcelles;Le Haut de l'Aunette (A19);2006-06-01;2006-07-31;#Protohistoire;;fouille
527034;6706770;Centre;Indre-et-Loire;Notre-Dame-d'Oé;Le Tertreau;2006-07-15;2006-08-15;#Antiquité;;fouille
561677;6883068;Haute-Normandie;Eure;Parville;Bois de Parville;2006-02-06;2006-08-25;#Protohistoire#Antiquité;;fouille
689193,153;7038413,6;Nord-Pas-de-Calais;Pas-de-Calais;Loison-sous-Lens;Parc d'activité des Oiseaux;2006-04-01;2006-08-31;#Néolithique;;fouille
355864,382;6689490,861;Pays de la Loire;Loire-Atlantique;Nantes;Château des ducs de Bretagne (tour philippienne);2003-08-01 00:00:00;2006-0830 00:00:00;#Moyen Âge;#Habitats, architecture, édifices;fouille
295046;6758835;Bretagne;Morbihan;Saint-Marcel;Saint-Marcel « Le Bourg » - Les influences culturelles à la fin de l'Antiquité;2006-05-29;2006-09-01;#Antiquité;;fouille
665979;6835812;Ile-de-France;Seine-et-Marne;Lieusaint;Merigest;2006-08-01;2006-09-01;#Protohistoire#Moyen Âge;#Cultes et pratiques funéraires#Habitats, architecture, édifices;fouille
791492,4;6288539,75;Languedoc-Roussillon;Hérault;Lunel;Mas de Fourques;2006-07-20;2006-09-22;#Protohistoire#Antiquité;;fouille
433785;6805459;Pays de la Loire;Mayenne;Aron;Le Panveau;2006-09-01;2006-10-01;#Protohistoire;;fouille
358588;6624175;Pays de la Loire;Vendée;Aubigny;Le Baillargeau;2006-08-01;2006-10-13;#Protohistoire;;fouille
649635,351;6977706,388;Picardie;Somme;Amiens;Bas Parvis - Marché aux Herbes;2006-05-15;2006-10-15;#Antiquité#Moyen Âge#Moderne, Contemporain;#Habitats, architecture, édifices;fouille
697237,73;7041955,12;Nord-Pas-de-Calais;Pas-de-Calais;Carvin;Carvin, du Néolithique à l'Antiquité;2006-05-15;2006-10-15;#Néolithique#Protohistoire#Antiquité;#Cultes et pratiques funéraires#Habitats, architecture, édifices;fouille
729111,974;7018500,96;Nord-Pas-de-Calais;Nord;Haspres;Les Vallées;2006-10-02;2006-11-09;#Protohistoire#Moyen Âge;;fouille
911927,26;6233824,84;Provences-Alpes-Côte-d'Azur;Bouches-du-Rhône;La Ciotat;ZAC de la Source du Pré;2006-05-22;2006-11-17;#Antiquité#Moderne, Contemporain;;fouille
575878;6372797;Midi-Pyrénées;Lot;Cahors;166 rue des Hortes;2006-10-16;2006-11-18;#Antiquité#Moyen Âge;;fouille
350175;6696555;Pays de la Loire;Loire-Atlantique;Orvault;ZAC du Vallon des Garettes;2006-10-16;2006-11-22;#Protohistoire;;fouille
775260,72;6906661,08;Champagne-Ardenne;Marne;Reims;Rue  Saint-Symphorien;2006-06-15;2006-11-25;#Antiquité#Moyen Âge#Moderne, Contemporain;#Arts, biens de prestige#Habitats, architecture, édifices;fouille
654592;6877552;Ile-de-France;Val-d'Oise;Sarcelles;Place de la Libération, rue des Piliers, rue Pierre-Brossolette;2006-11-01;2006-11-30;#Moyen Âge#Moderne, Contemporain;#Habitats, architecture, édifices#Industrie, artisanat;fouille
665886;6834373;Ile-de-France;Seine-et-Marne;Lieusaint;Le Champtier à Cailles;2006-06-26;2006-12-12;#Protohistoire#Antiquité#Moyen Âge;#Habitats, architecture, édifices;fouille
717292,914;6520815,611;Auvergne;Puy-de-Dôme;Pont-du-Château;Champ Lamet et Chambussière;2006-10-03;2006-12-22;#Néolithique;;fouille
892774,3693;6247180,219;Provences-Alpes-Côte-d'Azur;Bouches-du-Rhône;Marseille;La Bourse;1967-01-01 00:00:00;2006-12-31 00:00:00;#Antiquité#Moyen Âge#Moderne, Contemporain;#Archéologie des conflits#Cultes et pratiques funéraires#Habitats, architecture, édifices#Industrie, artisanat#Peuplement, occupation espace;fouille
691539;6874332;Ile-de-France;Seine-et-Marne;Meaux;25 rue Saint-Fiacre - 124 rue de Châage;2007-00-00;2007-00-00;#Antiquité;#Habitats, architecture, édifices#Industrie, artisanat;fouille
1005258,99;6265823,21;Provences-Alpes-Côte-d'Azur;Var;Saint-Raphaël;Vieille Église de Saint-Raphaël;2003-01-01;2007-01-01;#Antiquité#Moyen Âge#Moderne, Contemporain;;fouille
1005258,99;6265823,21;Provences-Alpes-Côte-d'Azur;Var;Saint-Raphaël;Vieille Église de Saint-Raphaël ;2003-01-01;2007-01-01;#Antiquité#Moyen Âge#Moderne, Contemporain;;fouille
666419;6835790;Ile-de-France;Seine-et-Marne;Lieusaint;Centre commercial 2;2006-09-04;2007-01-05;#Néolithique#Protohistoire#Antiquité;#Habitats, architecture, édifices;fouille
653990;6777466;Centre;Loiret;Batilly-en-Gâtinais;Les Pierrières (site A19 - I1. 1-2);2006-07-01;2007-01-31;#Protohistoire;;fouille
613460;6771391;Centre;Loiret;Chevilly;La Pièce de Chameul (A19 - A2-7);2006-08-01;2007-01-31;#Protohistoire#Antiquité#Moyen Âge;;fouille
1044642,56;6298133,36;Provences-Alpes-Côte-d'Azur;Alpes Maritimes;Nice;Le Pont Vieux;2006-10-18;2007-02-18;#Moyen Âge#Moderne, Contemporain;;fouille
928479;6686886;Franche-Comté;Doubs;Besançon;85 bis, rue Battant;2007-01-15 00:00:00;2007-02-23 00:00:00;#Antiquité#Moyen Âge#Moderne, Contemporain;#Habitats, architecture, édifices#Industrie, artisanat;fouille
1001920,97;6266615,53;Provences-Alpes-Côte-d'Azur;Var;Fréjus;Fouille de l'amphithéâtre;2006-04-01;2007-02-28;#Antiquité#Moderne, Contemporain;;fouille
650421,433;6977148,286;Picardie;Somme;Amiens;Des entrepôts et un théâtre gallo-romains à Amiens;2006-09-15;2007-03-15;#Antiquité;#Cultes et pratiques funéraires#Échange et transport#Habitats, architecture, édifices;fouille
659724;6875617;Ile-de-France;Val-d'Oise;Gonesse;ZAC Entrée sud de Gonesse;2006-10-15;2007-03-15;#Protohistoire#Antiquité;;fouille
625272;6776576;Centre;Loiret;Aschères-le-Marché;"Le Marjolet ; La Cabarne";2006-10-09;2007-03-19;#Antiquité#Moyen Âge;;fouille
525594,24;6701608,25;Centre;Indre-et-Loire;Tours;63-65bis rue Nationale, 9 rue Etienne Palu et 2-8 rue Gambetta;2006-09-01;2007-03-31;#Antiquité#Moyen Âge;#Cultes et pratiques funéraires#Habitats, architecture, édifices;fouille
669580;6864599;Ile-de-France;Seine-et-Marne;Chelles;30-32 rue Gustave-Nast;2006-09-01;2007-03-31;#Néolithique#Protohistoire#Antiquité#Moyen Âge;;fouille
932137;6894450;Lorraine;Moselle;Metz;ZAC du quartier de l'amphithéâtre;2006-03-20;2007-04-04;#Antiquité#Moyen Âge#Moderne, Contemporain;;fouille
474027;6853198;Basse-Normandie;Orne;Goulet;Le Mont;2007-02-18;2007-04-27;#Néolithique;;fouille
892167,3;6247236,614;Provences-Alpes-Côte-d'Azur;Bouches-du-Rhône;Marseille;Place de l'îlot Madeleine (îlot 7);2007-01-30 00:00:00;2007-05-02 00:00:00;#Antiquité#Moderne, Contemporain;#Habitats, architecture, édifices#Peuplement, occupation espace;fouille
651751;6574178;Limousin;Creuse;Nouhant;La Ribière;2007-02-26;2007-05-04;#Antiquité#Moyen Âge#Moderne, Contemporain;;fouille
669843,836;6901018,675;Picardie;Oise;Senlis;Le cimetière médiéval Saint-Rieul;2007-03-12;2007-05-15;#Moyen Âge#Moderne, Contemporain;#Cultes et pratiques funéraires;fouille
894967,14;6288343,37;Provences-Alpes-Côte-d'Azur;Bouches-du-Rhône;Le Puy-Sainte-Réparade;Arnajon;2007-04-02;2007-05-15;#Antiquité;#Échange et transport#Habitats, architecture, édifices;fouille
616061;6755993;Centre;Loiret;Orléans;Prieuré de la Madeleine;1998-07-01;2007-05-16;#Antiquité#Moyen Âge#Moderne, Contemporain;#Cultes et pratiques funéraires#Habitats, architecture, édifices#Industrie, artisanat#Peuplement, occupation espace;fouille
616057;6755958;Centre;Loiret;Orléans;Rue du Faubourg Madeleine - le Prieuré de la Madeleine;2006-09-04;2007-05-16;#Moyen Âge#Moderne, Contemporain;;fouille
892982,108;6247674,095;Provences-Alpes-Côte-d'Azur;Bouches-du-Rhône;Marseille;Boulevard Nédélec;2006-09-04 00:00:00;2007-05-26 00:00:00;#Paléolithique, Mésolithique#Antiquité#Moderne, Contemporain;#Habitats, architecture, édifices;fouille
730566;6257386;Languedoc-Roussillon;Hérault;Valros;Le Pirou - la vigne de Bioaux - le Rec de Ligno;2006-10-23;2007-06-01;#Néolithique#Antiquité;;fouille
1036592,506;6826291,89;Alsace;Bas-Rhin;Meistratzheim;Foegel - Meistratzheim;2007-03-05;2007-06-01;#Néolithique#Protohistoire;;fouille
703677,975;7026102,61;Nord-Pas-de-Calais;Pas-de-Calais;Corbehem;CORBEHEM « rue de Gouy »;2007-05-09;2007-06-15;#Protohistoire;#Habitats, architecture, édifices;fouille
775190;6906455;Champagne-Ardenne;Marne;Reims;Place du cardinal Luçon;2007-04-02;2007-06-28;#Moyen Âge;#Cultes et pratiques funéraires;fouille
349064;6601669;Pays de la Loire;Vendée;Jard-sur-Mer;Le Grand Essart;2007-01-10;2007-06-30;#Protohistoire#Antiquité#Moyen Âge#Moderne, Contemporain;#Habitats, architecture, édifices;fouille
939902,47;6309192,66;Provences-Alpes-Côte-d'Azur;Alpes de Haute-Provence;Valensole;Baïsse de Sainte-Anne - Une nécropole de l'Antiquité tardive à Valensole;2007-03-12;2007-06-30;#Antiquité;#Cultes et pratiques funéraires;fouille
650417,6;6989950,223;Picardie;Somme;Villers-Bocage;Parc d'activités de la Montignette;2007-04-23;2007-07-13;#Protohistoire;;fouille
573500;6916500;Haute-Normandie;Eure;Romilly-sur-Andelle;Prieuré Saint-Crespin;2006-07-17;2007-07-17;#Moyen Âge;;fouille
575886;6373002;Midi-Pyrénées;Lot;Cahors;Allées Fénelon;2007-03-05;2007-07-29;#Antiquité#Moyen Âge#Moderne, Contemporain;;fouille
808760,82;6304513,51;Languedoc-Roussillon;Gard;Nîmes;Parking avenue Jean-Jaurès;2006-10-01;2007-08-04;#Protohistoire#Antiquité#Moderne, Contemporain;#Arts, biens de prestige#Habitats, architecture, édifices;fouille
735783,19;6282075,566;Languedoc-Roussillon;Hérault;Clermont-l'Hérault;L'Estagnol;2007-05-14;2007-08-15;#Antiquité#Moyen Âge;;fouille
459805;6266482;Midi-Pyrénées;Hautes-Pyrénées;Maubourguet;Darré Bourg-Vieux;2007-07-16;2007-08-17;#Moyen Âge;;fouille
742800;6823500;Champagne-Ardenne;Aube;Pont-sur-Seine;Gravières;2007-02-12;2007-08-21;#Protohistoire#Antiquité#Moyen Âge;;fouille
573516;6271958;Midi-Pyrénées;Haute-Garonne;Vieille-Toulouse;5 Chemin de la Planho;2007-02-27;2007-08-31;#Protohistoire;;fouille
417687;6523237;Poitou-Charentes;Charente-Maritime;Saintes;7  Petite rue du Séminaire;2007-07-19;2007-08-31;#Antiquité;#Habitats, architecture, édifices;fouille
892462,547;6247596,021;Provences-Alpes-Côte-d'Azur;Bouches-du-Rhône;Marseille;30  14 rue Trinquet;2007-04-10 00:00:00;2007-09-14 00:00:00;#Antiquité#Moyen Âge#Moderne, Contemporain;#Habitats, architecture, édifices#Industrie, artisanat#Peuplement, occupation espace;fouille
1044850,52;6298409,59;Provences-Alpes-Côte-d'Azur;Alpes Maritimes;Nice;Porte Pairolière;2006-10-23;2007-09-15;#Moyen Âge#Moderne, Contemporain;;fouille
693215;6806385;Ile-de-France;Seine-et-Marne;Ville-Saint-Jacques;Hameau gaulois et <I>villa</I> romaine à Ville-Saint-Jacques;2007-07-23;2007-09-21;#Protohistoire#Antiquité;;fouille
570511,683;6281122,114;Midi-Pyrénées;Haute-Garonne;Toulouse;13 chemin de la Flambère;2007-09-10;2007-10-26;#Néolithique#Protohistoire#Antiquité#Moderne, Contemporain;;fouille
482693;6509611;Poitou-Charentes;Charente;Soyaux;Champ des Rochers;2007-08-13;2007-11-16;#Néolithique#Antiquité;;fouille
893015,643;6247659,136;Provences-Alpes-Côte-d'Azur;Bouches-du-Rhône;Marseille;Voie Nouvelle;2007-09-24 00:00:00;2007-11-16 00:00:00;#Paléolithique, Mésolithique#Antiquité#Moderne, Contemporain;#Habitats, architecture, édifices#Industrie, artisanat;fouille
775475;6906640;Champagne-Ardenne;Marne;Reims;Rue Saint-Symphorien;2007-06-19;2007-11-24;#Antiquité#Moyen Âge#Moderne, Contemporain;#Habitats, architecture, édifices#Vie quotidienne, usages;fouille
635474,49;6856410,172;Ile-de-France;Yvelines;Versailles;Cour du Grand Commun - Louis XIII aux origines du château de Versailles;2007-03-19;2007-11-30;#Moderne, Contemporain;#Habitats, architecture, édifices;fouille
470113;6860303;Basse-Normandie;Orne;Ri;DB16013001;2007-06-04;2007-11-30;#Néolithique;;fouille
795023;6516930;Rhône-Alpes;Loire;Feurs;Rue Camille-Pariat - Une maison romaine sous le centre hospitalier de Feurs;2007-10-15;2007-12-04;#Antiquité;;fouille
742092,2;6612152,841;Auvergne;Allier;Chevagnes;Les maisons fortes du bas Moyen Âge à Chevagnes;2007-10-10;2007-12-05;#Moyen Âge;#Habitats, architecture, édifices;fouille
926300;6911800;Lorraine;Moselle;Vitry-sur-Orne;ZAC de La Plaine - Vallange, un village retrouvé;2007-03-08;2007-12-14;#Antiquité#Moyen Âge;#Habitats, architecture, édifices#Industrie, artisanat;fouille
667649;6837347;Ile-de-France;Seine-et-Marne;Lieusaint;ZAC de la Pyramide, lots D-E-F;2004-06-24;2007-12-19;#Antiquité#Moyen Âge;#Habitats, architecture, édifices;fouille
574629,43;6276312,206;Midi-Pyrénées;Haute-Garonne;Toulouse;16 rue Rambaud;2007-09-17;2007-12-21;#Protohistoire;;fouille
423491;6519497;Poitou-Charentes;Charente-Maritime;Chaniers;Les Groies;2007-10-01;2007-12-21;#Moyen Âge;#Cultes et pratiques funéraires;fouille
1031659,284;6844943,344;Alsace;Bas-Rhin;Marlenheim;Le Clos du Marlenberg;2007-08-06;2008-01-09;#Néolithique#Protohistoire#Moyen Âge;#Cultes et pratiques funéraires#Habitats, architecture, édifices#Industrie, artisanat;fouille
574318;6277030;Midi-Pyrénées;Haute-Garonne;Toulouse;105 rue Saint-Roch;2007-09-25;2008-01-22;#Protohistoire#Antiquité;;fouille
1230401;6180962;Corse;Corse-du-Sud;Lucciana;Torricella;2007-12-10;2008-03-07;#Antiquité;;fouille
858647;6440504;Rhône-Alpes;Drôme;Romans-sur-Isère;Contournement nord-ouest de Romans;2007-11-05;2008-03-11;#Protohistoire#Antiquité#Moyen Âge;#Cultes et pratiques funéraires#Habitats, architecture, édifices#Industrie, artisanat;fouille
390071;6788332;Bretagne;Ille-et-Vilaine;Vitré;Boulevard de Laval - La Grande Haie;2007-10-15;2008-04-08;#Protohistoire;#Habitats, architecture, édifices;fouille
619918;6758429;Centre;Loiret;Orléans;ZAC du Clos de la Fontaine;2007-07-02;2008-04-11;#Paléolithique, Mésolithique#Protohistoire#Antiquité#Moyen Âge;#Cultes et pratiques funéraires#Habitats, architecture, édifices#Peuplement, occupation espace;fouille
1034969,07;6293905,18;Provences-Alpes-Côte-d'Azur;Alpes Maritimes;Cagnes-sur-Mer;Le Béal II;2008-02-11;2008-04-12;#Antiquité#Moyen Âge#Moderne, Contemporain;#Cultes et pratiques funéraires#Industrie, artisanat;fouille
1024400;6788000;Alsace;Haut-Rhin;Colmar;Des inhumations en fosses-silos et deux colliers en cuivre du Néolithique;2008-03-25;2008-05-23;#Néolithique;#Agriculture, élevage#Arts, biens de prestige#Cultes et pratiques funéraires#Habitats, architecture, édifices#Vie quotidienne, usages;fouille
434160;6274344;Aquitaine;Pyrénées-Atlantiques;Claracq;Chemin de la Lande;2008-04-21;2008-05-30;#Protohistoire;#Cultes et pratiques funéraires;fouille
567344;6289720;Midi-Pyrénées;Haute-Garonne;Seilh;Château Percin;2007-11-19;2008-06-13;#Néolithique;#Habitats, architecture, édifices;fouille
951627;6585218;Rhône-Alpes;Haute-savoie;Chens-sur-Léman;Rue de Charnage - Un village du Bronze final à Chens-sur-Léman;2008-01-07;2008-06-13;#Protohistoire;;fouille
516655;6285471;Midi-Pyrénées;Gers;Marsan;Lasserre;2008-01-08;2008-06-13;#Moyen Âge;;fouille
273300;6835474;Bretagne;Côtes-d'Armor;Ploufragan;Une villa gallo-romaine à Ploufragan;2008-03-31;2008-06-13;#Antiquité;;fouille
434594;6272369;Aquitaine;Pyrénées-Atlantiques;Claracq;Chemin des Thuyas;2008-04-21;2008-06-13;#Protohistoire;#Cultes et pratiques funéraires;fouille
927585;6500518;Rhône-Alpes;Savoie;Chambéry;Place Henri-Dunant, Quartier des Halles;2008-04-14;2008-06-26;#Moyen Âge#Moderne, Contemporain;#Arts, biens de prestige#Échange et transport#Habitats, architecture, édifices;fouille
430368;6268290;Aquitaine;Pyrénées-Atlantiques;Auriac;Duclos;2008-04-02;2008-06-27;#Paléolithique, Mésolithique#Antiquité;#Industrie, artisanat;fouille
721018,833;6525145,968;Auvergne;Puy-de-Dôme;Les Martres-d'Artière;Champ Chalatras;2008-02-06;2008-07-04;#Néolithique#Protohistoire#Antiquité;;fouille
602310;6834400;Centre;Eure-et-Loir;Épernon;Quartier Savonnière, tranche 2;2008-03-25;2008-07-18;#Antiquité#Moyen Âge;#Habitats, architecture, édifices;fouille
882500;6550113;Rhône-Alpes;Ain;Saint-Jean-le-Vieux;Les Colombiers chemin rural;2008-03-10;2008-07-28;#Néolithique#Antiquité;;fouille
832626;6539449;Rhône-Alpes;Rhône;Anse;La Citadelle;2008-01-14;2008-07-31;#Antiquité;#Échange et transport#Habitats, architecture, édifices;fouille
646728;6859375;Ile-de-France;Paris;Paris;62  rue Henry-Farman;2008-02-18;2008-07-31;#Néolithique#Protohistoire;#Peuplement, occupation espace;fouille
851231,054;6683244,044;Bourgogne;Côte-d'Or;Gevrey-Chambertin;Au-dessus de Bergis;2008-06-09;2008-08-04;#Néolithique#Protohistoire#Antiquité;#Agriculture, élevage#Chasse, pêche, cueillette#Habitats, architecture, édifices#Paysage et environnement#Peuplement, occupation espace#Vie quotidienne, usages;fouille
689484,346;6179186,605;Languedoc-Roussillon;Pyrénées-Orientales;Perpignan;Les nécropoles de Negabous;2008-03-31;2008-08-08;#Protohistoire#Antiquité;;fouille
929875;6922112;Lorraine;Moselle;Thionville;Cour des Capucins - fouille 2008;2008-03-25;2008-09-08;;;fouille
436263;6301108;Aquitaine;Landes;Cazères-sur-l'Adour;Septsos;2008-06-30;2008-09-12;#Paléolithique, Mésolithique#Néolithique;#Industrie, artisanat;fouille
1050152;6842090;Alsace;Bas-Rhin;Strasbourg;4 rue Brûlée;2008-03-26;2008-09-30;#Antiquité#Moyen Âge#Moderne, Contemporain;#Habitats, architecture, édifices#Peuplement, occupation espace#Vie quotidienne, usages;fouille
619869;6758479;Centre;Loiret;Orléans;Un sanctuaire antique - ZAC du Clos de la Fontaine;2007-07-02;2008-10-03;#Antiquité#Moyen Âge;;fouille
739530;6825690;Champagne-Ardenne;Aube;La Saulsotte;Le Vieux Bouchy;2008-07-15;2008-10-03;#Néolithique#Protohistoire#Antiquité#Moyen Âge;#Habitats, architecture, édifices#Industrie, artisanat#Organisation sociale et politique#Vie quotidienne, usages;fouille
893092,289;6247219,898;Provences-Alpes-Côte-d'Azur;Bouches-du-Rhône;Marseille;25 rue Thubaneau, Jeu de Paume;2008-06-28 00:00:00;2008-10-15 00:00:00;#Moyen Âge#Moderne, Contemporain;#Habitats, architecture, édifices;fouille
377240;6573622;Poitou-Charentes;Charente-Maritime;L'Houmeau;Monsidun;2008-02-18;2008-10-18;#Antiquité#Moyen Âge;#Cultes et pratiques funéraires#Habitats, architecture, édifices#Industrie, artisanat;fouille
892034,951;6247399,557;Provences-Alpes-Côte-d'Azur;Bouches-du-Rhône;Marseille;Esplanade de la Major ;2008-03-01;2008-11-01;#Néolithique#Antiquité#Moyen Âge;#Cultes et pratiques funéraires#Habitats, architecture, édifices;fouille
697027,979;7041856,09;Nord-Pas-de-Calais;Pas-de-Calais;Carvin;ZAC de la Gare d'Eau;2008-05-19;2008-11-14;#Néolithique;#Habitats, architecture, édifices;fouille
432602;6713870;Pays de la Loire;Maine-et-Loire;Angers;Rue Saint-Maurille, place du Ralliement;2008-09-23;2008-11-21;#Antiquité#Moyen Âge;#Cultes et pratiques funéraires#Échange et transport;fouille
434102;6280249;Aquitaine;Landes;Miramont-Sensacq;Cazaou de Luc;2008-09-29;2008-11-21;#Protohistoire#Antiquité;#Cultes et pratiques funéraires;fouille
977408,75;6391208;Provences-Alpes-Côte-d'Azur;Hautes-Alpes;Embrun;Îlot du Théâtre;2007-11-30;2008-12-01;#Antiquité#Moyen Âge#Moderne, Contemporain;#Cultes et pratiques funéraires#Habitats, architecture, édifices;fouille
770300;6830580;Champagne-Ardenne;Aube;Plancy-l'Abbaye;Lieu-dit Saint-Martin;2008-10-13;2008-12-01;;;fouille
774419,34;6906949,48;Champagne-Ardenne;Marne;Reims;Tracé de la ligne de tramway;2007-07-03;2008-12-02;#Protohistoire#Antiquité#Moyen Âge#Moderne, Contemporain;#Cultes et pratiques funéraires#Échange et transport#Habitats, architecture, édifices#Industrie, artisanat;fouille
440860;6376665;Aquitaine;Gironde;Lignan-de-Bazas;L'Ambrot;2008-10-13;2008-12-19;#Protohistoire#Antiquité#Moderne, Contemporain;#Agriculture, élevage#Habitats, architecture, édifices#Industrie, artisanat;fouille
892034,951;6247399,557;Provences-Alpes-Côte-d'Azur;Bouches-du-Rhône;Marseille;Esplanade Major;2008-09-11 00:00:00;2008-12-19 00:00:00;#Antiquité#Moyen Âge#Moderne, Contemporain;#Archéologie des conflits#Cultes et pratiques funéraires#Habitats, architecture, édifices#Peuplement, occupation espace;fouille
892034,951;6247399,557;Provences-Alpes-Côte-d'Azur;Bouches-du-Rhône;Marseille;Esplanade de la Major;2008-03-01;2009-01-31;#Antiquité;#Cultes et pratiques funéraires#Habitats, architecture, édifices;fouille
809431,16;6305689,97;Languedoc-Roussillon;Gard;Nîmes;Le quartier Clérisseau;2008-09-08;2009-02-06;#Antiquité#Moyen Âge#Moderne, Contemporain;;fouille
430585;6599773;Poitou-Charentes;Deux-Sèvres;Faye-sur-Ardin;Voie communale n° 16;2008-10-13;2009-02-06;#Protohistoire#Antiquité#Moyen Âge;#Cultes et pratiques funéraires#Échange et transport#Habitats, architecture, édifices#Peuplement, occupation espace;fouille
719878,93;6243819,23;Languedoc-Roussillon;Hérault;Sauvian;La Lesse-Espagnac;2008-11-05;2009-03-03;#Néolithique#Protohistoire#Antiquité;#Cultes et pratiques funéraires#Habitats, architecture, édifices;fouille
436330;6303746;Aquitaine;Landes;Le Vignau;Romentère;2009-01-05;2009-04-10;#Néolithique;#Industrie, artisanat;fouille
428439;6268385;Aquitaine;Pyrénées-Atlantiques;Argelos;Labarthe 3;2009-04-06;2009-05-07;#Protohistoire#Antiquité#Moderne, Contemporain;#Agriculture, élevage#Industrie, artisanat;fouille
429646;6268080;Aquitaine;Pyrénées-Atlantiques;Thèze;Mugain 2;2009-04-06;2009-05-07;#Antiquité;#Agriculture, élevage#Industrie, artisanat;fouille
649019;6846969;Ile-de-France;Essonne;Massy;Rue du Pérou;2009-05-12;2009-05-07;#Néolithique#Protohistoire#Antiquité#Moderne, Contemporain;#Peuplement, occupation espace;fouille
775190;6905540;Champagne-Ardenne;Marne;Reims;Bd Docteur Henri Henrot, rue Folle Peine et rue des Moulins (ZAC du vieux Port);2007-11-19;2009-05-09;#Protohistoire#Antiquité#Moyen Âge;#Échange et transport#Habitats, architecture, édifices#Industrie, artisanat;fouille
565700;6933300;Haute-Normandie;Seine-Maritime;Isneauville;Une ferme gauloise puis gallo-romaine;2009-01-06;2009-05-18;#Protohistoire#Antiquité#Moyen Âge;;fouille
666837,371;6860909,645;Ile-de-France;Seine-Saint-Denis;Noisy-le-Grand;4 rue des Mastraits - Nécropole du haut Moyen Âge;2008-10-27;2009-05-25;#Moyen Âge;;fouille
791634;6509824;Rhône-Alpes;Loire;Chambéon;Chambéon - Magneux 3500 d'occupation dans la plaine du Forez;2008-06-02;2009-05-29;#Protohistoire#Antiquité;;fouille
555565;6537254;Limousin;Haute-Vienne;Saint-Gence;La Gagnerie;2009-04-06;2009-06-05;#Protohistoire;#Échange et transport#Habitats, architecture, édifices#Industrie, artisanat#Vie quotidienne, usages;fouille
327212;6651240;Pays de la Loire;Vendée;Sallertaine;La Caillaudière;2008-10-20;2009-06-20;#Antiquité;;fouille
775190;6905540;Champagne-Ardenne;Marne;Reims;Boulevard Henri-Henrot (ZAC du Vieux Port);2008-06-01;2009-07-10;#Antiquité#Moderne, Contemporain;#Échange et transport#Habitats, architecture, édifices#Industrie, artisanat;fouille
894518,425;6688043,285;Franche-Comté;Jura;Dammartin-Marpain;Des chasseurs-cueilleurs en Franche-Comté;2008-10-09;2009-07-10;#Néolithique;;fouille
423191;6504475;Poitou-Charentes;Charente-Maritime;Pons;Avenue de Versailles;2009-02-16;2009-07-10;#Protohistoire;;fouille
430962;6328089;Aquitaine;Landes;Pouydesseaux;Loustalet;2009-04-20;2009-07-10;#Protohistoire;#Cultes et pratiques funéraires;fouille
716365,6;6519854,3;Auvergne;Puy-de-Dôme;Lempdes;ZAC de la Fontanille II;2008-11-17;2009-07-17;#Protohistoire;#Cultes et pratiques funéraires#Habitats, architecture, édifices#Industrie, artisanat;fouille
602730;6471186;Limousin;Corrèze;Naves;Les Arènes de Tintignac - fouille 2009;2009-07-06;2009-07-31;#Antiquité;#Cultes et pratiques funéraires;fouille
832367;6529560;Rhône-Alpes;Rhône;Fleurieux-sur-l'Arbresle;Une ferme antique à Fleurieux-sur-l'Arbresle;2009-04-20;2009-08-12;#Antiquité;#Habitats, architecture, édifices;fouille
512272;6286513;Midi-Pyrénées;Gers;Lahitte;Soulan de Lasserre-Cabanery;2009-06-15;2009-08-28;#Moyen Âge;#Cultes et pratiques funéraires;fouille
897500;6780700;Lorraine;Vosges;Damblain;Cap Vosges;2008-05-13;2009-08-30;#Antiquité#Moyen Âge;#Habitats, architecture, édifices;fouille
931710;6895140;Lorraine;Moselle;Metz;Îlot Sainte-Chrétienne - fouille 2009;2009-02-01;2009-09-30;#Antiquité#Moyen Âge#Moderne, Contemporain;#Habitats, architecture, édifices;fouille
931710;6895140;Lorraine;Moselle;Metz;Sainte Chrétienne;2009-02-01 00:00:00;2009-09-30 00:00:00;#Moyen Âge#Moderne, Contemporain;#Cultes et pratiques funéraires#Habitats, architecture, édifices;fouille
747660,087;6946026,63;Picardie;Aisne;Laon;Pôle d'activités du Griffon  tranche 1B;2009-06-02;2009-10-02;#Protohistoire;#Cultes et pratiques funéraires;fouille
787119,67;6468150,111;Auvergne;Haute-Loire;Bas-en-Basset;Occupations de La Tène finale et de l'époque gallo-romaine;2009-09-08;2009-10-02;#Protohistoire#Antiquité;#Habitats, architecture, édifices;fouille
1033400,15;6284487,43;Provences-Alpes-Côte-d'Azur;Alpes Maritimes;Antibes;Place Mariéjol - fouille 2009;2009-09-07;2009-10-09;;;fouille
671197;6830668;Ile-de-France;Seine-et-Marne;Cesson;La Plaine du Moulin à Vent - fouille 2009;2009-06-15;2009-10-15;;;fouille
744565;6825930;Champagne-Ardenne;Aube;Pont-sur-Seine;Pont sur Seine - Haut de Launoy;2009-09-10;2009-10-30;#Néolithique;#Habitats, architecture, édifices;fouille
912175,18;6234379,05;Provences-Alpes-Côte-d'Azur;Bouches-du-Rhône;La Ciotat;Îlot Saint-Jacques;2009-03-00;2009-11-00;#Moderne, Contemporain;#Cultes et pratiques funéraires;fouille
365474;6780650;Bretagne;Ille-et-Vilaine;Châteaugiron;ZAC de La Perdriotais - Une longue occupation rurale aux origines de Châteaugiron;2008-05-01;2009-11-01;#Protohistoire#Antiquité#Moyen Âge;;fouille
650950,92;6237093,29;Languedoc-Roussillon;Aude;Carcassonne;Lo Badarel;2009-07-06;2009-11-09;#Néolithique#Antiquité;#Cultes et pratiques funéraires#Échange et transport#Habitats, architecture, édifices#Sciences et méthodes de l'archéologie#Paysage et environnement;fouille
658893;6875686;Ile-de-France;Val-d'Oise;Gonesse;Cours Baleine, ZAC entrée sud II;2009-09-07;2009-11-15;#Protohistoire#Antiquité#Moyen Âge#Moderne, Contemporain;#Agriculture, élevage#Cultes et pratiques funéraires#Échange et transport#Habitats, architecture, édifices#Industrie, artisanat#Paysage et environnement#Organisation sociale et politique#Peuplement, occupation espace#Vie quotidienne, usages;fouille
759472;6278998;Languedoc-Roussillon;Hérault;Murviel-lès-Montpellier;9 bis route de Bel-Air;2009-11-16;2009-12-11;#Antiquité;#Habitats, architecture, édifices#Paysage et environnement;fouille
647755;6495588;Limousin;Corrèze;Ussel;Le Theil;2009-11-15;2009-12-15;#Antiquité;#Habitats, architecture, édifices;fouille
849595,301;6694498,313;Bourgogne;Côte-d'Or;Plombières-lès-Dijon;La Peute Combe;2009-05-04;2009-12-24;;;fouille
1037695,217;6855232,802;Alsace;Bas-Rhin;Gougenheim;D'exceptionnelles sépultures du Néolithique récent;2000-08-01;2009-12-31;#Néolithique;#Cultes et pratiques funéraires;fouille
701808,015;7052582,06;Nord-Pas-de-Calais;Nord;Noyelles-lès-Seclin;Une agglomération gallo-romaine atypique à Noyelles-lez-Seclin;2009-11-16;2010-01-01;#Antiquité;#Cultes et pratiques funéraires#Habitats, architecture, édifices#Industrie, artisanat;fouille
892383,174;6247227,271;Provences-Alpes-Côte-d'Azur;Bouches-du-Rhône;Marseille;Hôtel Dieu 6 Place Daviel II;2010-02-28;2010-01-01;#Antiquité#Moyen Âge#Moderne, Contemporain;#Habitats, architecture, édifices;fouille
1192724,73;6082076,67;Corse;Corse-du-Sud;Propriano;Quattrina - Aux origines de la Corse chrétienne, les églises oubliées de Propriano;2009-09-15;2010-01-08;#Antiquité#Moyen Âge;#Cultes et pratiques funéraires#Habitats, architecture, édifices;fouille
618679;6756041;Centre;Loiret;Orléans;ZAC Bourgogne;2010-01-10;2010-02-10;#Antiquité#Moyen Âge#Moderne, Contemporain;#Habitats, architecture, édifices;fouille
618457;6756383;Centre;Loiret;Orléans;Deuxième ligne de tramway, place de l'Étape;2009-11-16;2010-03-26;#Antiquité#Moyen Âge#Moderne, Contemporain;#Cultes et pratiques funéraires#Habitats, architecture, édifices;fouille
380287;6570496;Poitou-Charentes;Charente-Maritime;La Rochelle;Hôpital protestant, rue du Docteur Schweitzer;2009-11-29;2010-03-26;#Moderne, Contemporain;#Cultes et pratiques funéraires#Habitats, architecture, édifices;fouille
985704;6711917;Franche-Comté;Doubs;Mandeure;Rue du Théâtre;2010-03-01;2010-03-31;#Antiquité;#Cultes et pratiques funéraires#Paysage et environnement#Organisation sociale et politique#Peuplement, occupation espace;fouille
694149;6970761;Picardie;Somme;Cizancourt;La Sole des Galets et Vallée Madeleine;2010-03-08 00:00:00;2010-04-02 00:00:00;#Protohistoire#Antiquité;#Cultes et pratiques funéraires#Échange et transport#Peuplement, occupation espace;fouille
508067;6318471;Midi-Pyrénées;Gers;Lectoure;Estoube;2010-02-16;2010-04-09;#Protohistoire#Antiquité;#Habitats, architecture, édifices;fouille
617991;6756227;Centre;Loiret;Orléans;Deuxième ligne de tramway, place de Gaulle;2009-11-16;2010-04-23;#Protohistoire#Antiquité#Moyen Âge#Moderne, Contemporain;#Archéologie des conflits#Cultes et pratiques funéraires#Habitats, architecture, édifices#Industrie, artisanat#Peuplement, occupation espace;fouille
607044;6797389;Centre;Eure-et-Loir;Ymonville;Les Hyèbles 2;2009-07-04;2010-04-30;#Protohistoire;#Cultes et pratiques funéraires#Habitats, architecture, édifices#Industrie, artisanat#Peuplement, occupation espace;fouille
607044;6797389;Centre;Eure-et-Loir;Ymonville;Les Hyèbles;2009-07-04;2010-04-30;#Protohistoire;#Cultes et pratiques funéraires#Habitats, architecture, édifices#Industrie, artisanat#Peuplement, occupation espace;fouille
706331,35;6519499,4;Auvergne;Puy-de-Dôme;Clermont-Ferrand;Carré Jaude 2 - extension 2010;2010-02-03;2010-04-30;#Antiquité;#Cultes et pratiques funéraires#Habitats, architecture, édifices;fouille
685667;6859850;Ile-de-France;Seine-et-Marne;Bailly-Romainvilliers;Le Prieuré;2010-03-05;2010-05-07;;;fouille
1044768,201;6853679,893;Alsace;Bas-Rhin;Eckwersheim;De l'âge du Bronze à l'époque mérovingienne;2010-03-01;2010-05-12;#Protohistoire#Antiquité#Moyen Âge;#Cultes et pratiques funéraires#Habitats, architecture, édifices#Peuplement, occupation espace;fouille
667814,406;6580072,463;Auvergne;Allier;Montluçon;Les Hauts de Buffon;2010-02-10;2010-06-07;#Paléolithique, Mésolithique#Antiquité;#Cultes et pratiques funéraires#Habitats, architecture, édifices;fouille
639260,556;6852054,634;Ile-de-France;Yvelines;Jouy-en-Josas;Domaine du Montcel;2010-05-31 00:00:00;2010-06-10 00:00:00;#Moderne, Contemporain;#Arts, biens de prestige;fouille
601175;6797424;Centre;Eure-et-Loir;Prasville;Rougemont;2010-04-20;2010-06-11;#Néolithique#Antiquité;#Agriculture, élevage#Habitats, architecture, édifices;fouille
708751;7013749;Nord-Pas-de-Calais;Pas-de-Calais;Sauchy-Lestrée;Le Grotin;2010-05-04 00:00:00;2010-06-15 00:00:00;#Protohistoire;#Cultes et pratiques funéraires#Habitats, architecture, édifices#Peuplement, occupation espace;fouille
694135;6971462;Picardie;Somme;Cizancourt;La Sole des Galets;2010-03-15 00:00:00;2010-06-16 00:00:00;#Protohistoire#Antiquité#Moyen Âge;#Cultes et pratiques funéraires#Habitats, architecture, édifices#Industrie, artisanat;fouille
709724;7016163;Nord-Pas-de-Calais;Pas-de-Calais;Oisy-le-Verger;Le Pont d'Epinoy;2010-05-04 00:00:00;2010-06-18 00:00:00;#Protohistoire#Antiquité;#Cultes et pratiques funéraires#Échange et transport;fouille
708722;7013519;Nord-Pas-de-Calais;Pas-de-Calais;Sauchy-Lestrée;Le Prunier;2010-05-19 00:00:00;2010-06-18 00:00:00;#Protohistoire;#Cultes et pratiques funéraires#Habitats, architecture, édifices;fouille
601085;6639225;Centre;Indre;Déols;ZAC de Grandéols;2010-03-30;2010-06-30;#Protohistoire;#Habitats, architecture, édifices#Industrie, artisanat;fouille
692820;6185900;Languedoc-Roussillon;Pyrénées-Orientales;Claira;Route du  Barcarès;2010-11-30;2010-06-30;#Antiquité;#Habitats, architecture, édifices#Industrie, artisanat#Vie quotidienne, usages;fouille
708686;7013009;Nord-Pas-de-Calais;Pas-de-Calais;Sauchy-Lestrée;Le Mont des Trois Pensées;2010-05-11 00:00:00;2010-06-30 00:00:00;#Néolithique#Protohistoire;#Cultes et pratiques funéraires#Habitats, architecture, édifices#Peuplement, occupation espace;fouille
641889;6845999;Ile-de-France;Essonne;Palaiseau;Campus de l'École polytechnique;2010-04-02;2010-07-02;#Néolithique#Protohistoire#Antiquité#Moderne, Contemporain;#Agriculture, élevage#Habitats, architecture, édifices#Industrie, artisanat#Sciences et méthodes de l'archéologie#Vie quotidienne, usages;fouille
694073;6972156;Picardie;Somme;Saint-Christ-Briost;La Terrière;2010-06-21 00:00:00;2010-07-02 00:00:00;#Protohistoire;#Habitats, architecture, édifices;fouille
709525;7015663;Nord-Pas-de-Calais;Pas-de-Calais;Oisy-le-Verger;Le Bois de Bloquières;2010-06-21 00:00:00;2010-07-02 00:00:00;#Protohistoire;#Cultes et pratiques funéraires;fouille
644076;6787042;Centre;Loiret;Pithiviers;Bois Médor et Vieux Chemin d'Étampes;2010-05-05;2010-07-06;;;fouille
918602,64;6376785,8;Provences-Alpes-Côte-d'Azur;Hautes-Alpes;La Bâtie-Montsaléon;Plaine de Lachaup;2010-05-17;2010-07-13;#Antiquité;#Habitats, architecture, édifices;fouille
678311,338;6864305,229;Ile-de-France;Seine-et-Marne;Lagny-sur-Marne;9 rue Gambetta;2010-03-22 00:00:00;2010-07-13 00:00:00;#Moyen Âge#Moderne, Contemporain;#Échange et transport#Habitats, architecture, édifices;fouille
640968;6784752;Centre;Loiret;Pithiviers-le-Vieil;Les Jardins du Bourg;2009-09-09;2010-07-16;#Antiquité#Moyen Âge;#Cultes et pratiques funéraires#Habitats, architecture, édifices#Industrie, artisanat;fouille
524665,49;6701829,7;Centre;Indre-et-Loire;Tours;Clinique des Dames Blanches;2010-05-03;2010-07-23;#Antiquité#Moyen Âge#Moderne, Contemporain;#Échange et transport#Habitats, architecture, édifices#Paysage et environnement#Peuplement, occupation espace;fouille
978800;6869900;Lorraine;Moselle;Bassing;La Tête d'Or;2010-03-01;2010-07-31;#Protohistoire#Antiquité#Moyen Âge;#Habitats, architecture, édifices;fouille
774180,79;6275662,48;Languedoc-Roussillon;Hérault;Lattes;La Courgoulude;2010-04-02;2010-08-10;#Protohistoire;#Cultes et pratiques funéraires#Échange et transport#Habitats, architecture, édifices#Industrie, artisanat#Organisation sociale et politique;fouille
707538;7010015;Nord-Pas-de-Calais;Pas-de-Calais;Bourlon;La Maladrerie;2010-05-10 00:00:00;2010-08-13 00:00:00;#Protohistoire#Antiquité#Moderne, Contemporain;#Cultes et pratiques funéraires#Habitats, architecture, édifices#Industrie, artisanat#Peuplement, occupation espace;fouille
657833;6874469;Ile-de-France;Val-d'Oise;Bonneuil-en-France;La Fontaine Plamond, aéroport du Bourget phase 1;2010-04-26;2010-09-03;#Protohistoire#Antiquité#Moyen Âge#Moderne, Contemporain;#Agriculture, élevage#Cultes et pratiques funéraires#Échange et transport#Habitats, architecture, édifices#Industrie, artisanat#Sciences et méthodes de l'archéologie#Paysage et environnement#Organisation sociale et politique#Peuplement, occupation espace#Vie quotidienne, usages;fouille
708250,749;7011455,227;Nord-Pas-de-Calais;Pas-de-Calais;Marquion;L'Épine;2010-05-03 00:00:00;2010-09-03;#Protohistoire#Antiquité;#Cultes et pratiques funéraires#Échange et transport;fouille
933595;6849162;Lorraine;Meurthe-et-Moselle;Nancy;Berger-Levrault;2010-03-01;2010-09-17;;;fouille
706571;7008680;Nord-Pas-de-Calais;Pas-de-Calais;Sains-lès-Marquion;Le Dièvre;2010-08-17 00:00:00;2010-09-17 00:00:00;#Protohistoire;#Cultes et pratiques funéraires#Habitats, architecture, édifices;fouille
431843;6713374;Pays de la Loire;Maine-et-Loire;Angers;Clinique Saint-Louis;2010-11-03;2010-09-30;#Antiquité;#Cultes et pratiques funéraires;fouille
891888,782;6247214,58;Provences-Alpes-Côte-d'Azur;Bouches-du-Rhône;Marseille;Consigne sanitaire;2010-09-29 00:00:00;2010-10-07 00:00:00;#Antiquité#Moyen Âge#Moderne, Contemporain;#Industrie, artisanat;fouille
599165;6805175;Centre;Eure-et-Loir;Allonnes;La Petite Contrée, secteur 3;2010-08-16;2010-10-08;#Néolithique#Protohistoire#Antiquité;#Agriculture, élevage#Habitats, architecture, édifices#Peuplement, occupation espace;fouille
698494;6988447;Picardie;Somme;Moislains;Au Petit Chemin de Nurlu;2010-08-09 00:00:00;2010-10-08 00:00:00;#Protohistoire#Antiquité;#Cultes et pratiques funéraires#Habitats, architecture, édifices;fouille
717720;6249950;Languedoc-Roussillon;Hérault;Béziers;27-29 rue Kléber;2010-09-13;2010-10-19;#Antiquité;#Vie quotidienne, usages;fouille
693957;6973784;Picardie;Somme;Saint-Christ-Briost;Les Dix-Huit;2010-06-28 00:00:00;2010-10-29 00:00:00;#Protohistoire#Antiquité;#Cultes et pratiques funéraires#Habitats, architecture, édifices#Industrie, artisanat;fouille
700013;6991908;Picardie;Somme;Étricourt-Manancourt;Les Seize et Le Fond de Manancourt;2010-08-23 00:00:00;2010-11-10 00:00:00;#Paléolithique, Mésolithique#Protohistoire#Antiquité;#Cultes et pratiques funéraires#Échange et transport#Habitats, architecture, édifices#Peuplement, occupation espace;fouille
695764;6960006;Picardie;Somme;Breuil;Sole de l'Epinette, Sole du Bois Marotte et Sole de la Voie de Quiquery;2010-09-06 00:00:00te;2010-11-17 00:00:00;#Néolithique#Protohistoire;#Échange et transport#Habitats, architecture, édifices#Industrie, artisanat;fouille
672118,57;7047140,53;Nord-Pas-de-Calais;Pas-de-Calais;Fouquereuil;Rue du Marais;2010-08-02;2010-12-03;#Protohistoire#Antiquité;#Cultes et pratiques funéraires;fouille
597972,52;6806406,088;Centre;Eure-et-Loir;Prunay-le-Gillon;Les Carreaux;2010-09-20 00:00:00;2010-12-09 00:00:00;#Néolithique#Protohistoire#Moderne, Contemporain;#Agriculture, élevage#Sciences et méthodes de l'archéologie#Peuplement, occupation espace#Vie quotidienne, usages;fouille
553146;6534579;Limousin;Haute-Vienne;Veyrac;Le Petit Moulin;;2010-12-13;#Protohistoire#Moyen Âge;#Habitats, architecture, édifices#Industrie, artisanat#Organisation sociale et politique;fouille
694048;6972677;Picardie;Somme;Saint-Christ-Briost;Bois de Briost et Sole d'Happlincourt;2010-08-17 00:00:00;2010-12-17 00:00:00;#Néolithique;#Habitats, architecture, édifices;fouille
705300;7002552;Nord-Pas-de-Calais;Pas-de-Calais;Havrincourt;Les Bosquets;2010-09-27 00:00:00;2010-12-17 00:00:00;#Paléolithique, Mésolithique;#Peuplement, occupation espace;fouille
693332;6983728;Picardie;Somme;Allaines;Les Quatre Journaux et Parc de l'Orgibet;2010-10-11 00:00:00;2010-12-24 00:00:00;#Protohistoire#Antiquité;#Cultes et pratiques funéraires#Habitats, architecture, édifices;fouille
696804;6956263;Picardie;Somme;Ercheu;Au Chemin de Ham et Le Champs d'Artois;2010-10-11 00:00:00;2010-12-24 00:00:00;#Néolithique#Protohistoire#Antiquité#Moyen Âge;#Cultes et pratiques funéraires#Échange et transport#Habitats, architecture, édifices#Peuplement, occupation espace;fouille
892197,771;6247262,564;Provences-Alpes-Côte-d'Azur;Bouches-du-Rhône;Marseille;Place du Refuge;2010-09-06 00:00:00;2011-01-21 00:00:00;#Antiquité#Moyen Âge#Moderne, Contemporain;#Cultes et pratiques funéraires#Habitats, architecture, édifices#Peuplement, occupation espace;fouille
1032709,34;6286546,55;Provences-Alpes-Côte-d'Azur;Alpes Maritimes;Antibes;64 avenue de Nice;2010-11-29 00:00:00;2011-01-21 00:00:00;#Antiquité#Moyen Âge;#Cultes et pratiques funéraires#Échange et transport#Paysage et environnement;fouille
837160;6379174;Rhône-Alpes;Drôme;Châteauneuf-du-Rhône;Le Grand Palais  Les Résidences du Ponant;2010-11-15 00:00:00;2011-02-04 00:00:00;#Protohistoire#Antiquité#Moyen Âge#Moderne, Contemporain;#Agriculture, élevage#Paysage et environnement;fouille
657669,47;6666795,414;Centre;Cher;Saint-Germain-du-Puy;Le Grand Pacage;2011-03-10 00:00:00;2011-03-30 00:00:00;#Protohistoire;#Cultes et pratiques funéraires;fouille
679457,42;6864446,514;Ile-de-France;Seine-et-Marne;Lagny-sur-Marne;19-25 Avenue Grouard;2010-11-01;2011-05-01;#Moyen Âge;#Cultes et pratiques funéraires;fouille
693315,8125;6979116,5;Picardie;Somme;Barleux;La Croisette et Sole du Bois de Marc;2011-04-11 00:00:00;2011-06-03 00:00:00;#Protohistoire;#Habitats, architecture, édifices#Industrie, artisanat;fouille
431475;6803310;Pays de la Loire;Mayenne;Moulay;Oppidum - RN12;2009-11-02 00:00:00;2011-06-24 00:00:00;#Protohistoire#Antiquité;#Habitats, architecture, édifices#Industrie, artisanat#Sciences et méthodes de l'archéologie#Organisation sociale et politique#Peuplement, occupation espace;fouille
598256,54;6760205,908;Centre;Loiret;Épieds-en-Beauce;Les Chantaupiaux;2011-03-07 00:00:00;2011-08-26 00:00:00;#Protohistoire#Antiquité#Moderne, Contemporain;#Cultes et pratiques funéraires#Habitats, architecture, édifices#Peuplement, occupation espace;fouille
657876,535;6667326,824;Centre;Cher;Saint-Germain-du-Puy;Les Boubards;2011-06-14 00:00:00;2011-09-02 00:00:00;#Antiquité#Moyen Âge;#Cultes et pratiques funéraires#Industrie, artisanat#Paysage et environnement;fouille
112075,83;6839887,73;Bretagne;Finistère;Île-Molène;Beg ar Loued;2003-03-01;2011-09-09;#Néolithique#Protohistoire;#Habitats, architecture, édifices#Paysage et environnement#Peuplement, occupation espace;fouille
705182,526;6521515,637;Auvergne;Puy-de-Dôme;Clermont-Ferrand;ZAC de Trémonteix;2010-09-08 00:00:00;2011-09-15 00:00:00;#Antiquité#Moyen Âge;#Cultes et pratiques funéraires#Habitats, architecture, édifices;fouille
707904,9375;7010510,5;Nord-Pas-de-Calais;Pas-de-Calais;Bourlon;La Vallée de Marquion;2011-05-04 00:00:00;2011-10-07 00:00:00;#Moyen Âge;#Cultes et pratiques funéraires#Habitats, architecture, édifices#Industrie, artisanat#Peuplement, occupation espace;fouille
650692,505;6846991,263;Ile-de-France;Essonne;Wissous;Zone sud ouest aéroport Paris-Orly;2011-09-01 00:00:00;2011-10-10 00:00:00;#Protohistoire#Antiquité;#Habitats, architecture, édifices#Industrie, artisanat#Vie quotidienne, usages;fouille
679486;6864439;Ile-de-France;Seine-et-Marne;Lagny-sur-Marne;19-25 avenue Grouard;2011-10-03;2011-10-22;#Moyen Âge;#Cultes et pratiques funéraires;fouille
695677,3125;6966057;Nord-Pas-de-Calais;Nord;Béthencourt;Vallée des Marottes;2011-09-12 00:00:00;2011-10-28 00:00:00;#Antiquité;#Industrie, artisanat#Peuplement, occupation espace;fouille
693000,0625;6976371,5;Picardie;Somme;Barleux;Dessus des Plates Pierres, Les Onze Polleux, Le Bois Crochette, Les Croix Noires et La Cloche;2010-09-13 00:00:00;2011-10-30 00:00:00;#Protohistoire#Antiquité#Moderne, Contemporain;#Cultes et pratiques funéraires#Échange et transport#Habitats, architecture, édifices#Industrie, artisanat#Peuplement, occupation espace;fouille
590264;6837691;Centre;Eure-et-Loir;Nogent-le-Roi;Le Poirier  Les Gués;2011-08-23 00:00:00;2011-11-04 00:00:00;#Antiquité#Moyen Âge#Moderne, Contemporain;#Archéologie des conflits#Habitats, architecture, édifices#Industrie, artisanat;fouille
695661;6959000,5;Picardie;Somme;Moyencourt;Le Haut du Bois de Pique;2010-06-28 00:00:00;2011-11-17 00:00:00;#Protohistoire#Antiquité;#Cultes et pratiques funéraires#Échange et transport;fouille
695199,3125;6968640;Picardie;Somme;Épénancourt;Les Rouges Monts et La Grosse Borne;2011-09-12 00:00:00;2011-11-25 00:00:00;#Protohistoire;#Habitats, architecture, édifices;fouille
525935;6701315,5;Centre;Indre-et-Loire;Tours;Tramway, rue Charles-Gille;2011-02-21 00:00:00;2011-12-21 00:00:00;#Antiquité#Moyen Âge#Moderne, Contemporain;#Cultes et pratiques funéraires#Vie quotidienne, usages;fouille
695341,5625;6963794;Picardie;Somme;Rouy-le-Grand;Vallée Ronvalle;2011-10-03 00:00:00;2011-12-23 00:00:00;#Protohistoire#Antiquité;#Cultes et pratiques funéraires#Habitats, architecture, édifices#Peuplement, occupation espace;fouille
566686;6913762;Haute-Normandie;Eure;Alizay;Le Postel, Le Port au Chanvre, Le Chêne, Le Pré Rompu;2011-02-07 00:00:00;2012-03-31 00:00:00;#Paléolithique, Mésolithique#Néolithique#Protohistoire;#Sciences et méthodes de l'archéologie#Peuplement, occupation espace;fouille
698790;6941867;Picardie;Oise;Noyon;La Mare aux Canards;2011-06-14 00:00:00;2012-06-15 00:00:00;#Antiquité;#Habitats, architecture, édifices;fouille
842889,5;6840661,9;Champagne-Ardenne;Haute-Marne;Saint-Dizier;Parc de référence;2012-03-01 00:00:00;2012-06-30 00:00:00;#Protohistoire#Antiquité;#Cultes et pratiques funéraires;fouille
749070;6828400;Champagne-Ardenne;Marne;Esclavolles-Lurey;Nécropole mérovingienne;2012-06-14 00:00:00;2012-07-30 00:00:00;#Protohistoire#Antiquité#Moyen Âge;#Cultes et pratiques funéraires#Habitats, architecture, édifices;fouille
708540,5;7012317,5;Nord-Pas-de-Calais;Pas-de-Calais;Marquion;Le Mont-des-Trois-Pensées et La Plaine du Renard;2011-05-16 00:00:00;2012-07-31 00:00:00;#Néolithique#Protohistoire#Antiquité#Moderne, Contemporain;#Cultes et pratiques funéraires#Habitats, architecture, édifices#Industrie, artisanat#Peuplement, occupation espace;fouille
359520;6925856;Basse-Normandie;Manche;Portbail;Genestel;2012-05-29 00:00:00;2012-08-03 00:00:00;#Antiquité;#Habitats, architecture, édifices;fouille
352870;6781684;Bretagne;Ille-et-Vilaine;Noyal-Châtillon-sur-Seiche;La Guyomerais;2012-03-12 00:00:00;2012-09-14 00:00:00;#Antiquité;#Agriculture, élevage#Habitats, architecture, édifices#Vie quotidienne, usages;fouille
547822;6689737;Centre;Indre-et-Loire;Sublaines;Le Bois Gaulpied et Le Grand Ormeau;2012-07-23 00:00:00;2012-09-26 00:00:00;#Moyen Âge;#Habitats, architecture, édifices;fouille
346991,556;6800838,575;Bretagne;Ille-et-Vilaine;La Mézière;Les Lignes de la Gonzée;2012-02-13 00:00:00;2012-10-12 00:00:00;#Protohistoire#Antiquité#Moyen Âge;#Cultes et pratiques funéraires#Habitats, architecture, édifices#Peuplement, occupation espace;fouille
496464,647;6612319,661;Poitou-Charentes;Vienne;Poitiers;Les Jardins du Puygarreau;2012-08-06 00:00:00;2012-10-19 00:00:00;#Antiquité;#Habitats, architecture, édifices;fouille
525651;6701526;Centre;Indre-et-Loire;Tours;Rue Nationale et place Jean-Jaurès;2011-02-21 00:00:00;2012-10-24 00:00:00;#Antiquité#Moyen Âge#Moderne, Contemporain;#Chasse, pêche, cueillette#Paysage et environnement#Vie quotidienne, usages;fouille
726585,008;6958166,957;Picardie;Aisne;Vendeuil;Le Bacquet d'Oise;2012-05-14 00:00:00;2012-10-26 00:00:00;#Moyen Âge;#Chasse, pêche, cueillette#Paysage et environnement#Vie quotidienne, usages;fouille
584756,942;6452121,67;Limousin;Corrèze;Brive-la-Gaillarde;Abords de la collégiale Saint-Martin;2012-07-23 00:00:00;2012-10-31 00:00:00;#Antiquité#Moyen Âge#Moderne, Contemporain;#Cultes et pratiques funéraires#Habitats, architecture, édifices;fouille
526715;6530511;Poitou-Charentes;Charente;Chassenon;Le Bourg antique;2012-08-27 00:00:00;2012-10-31 00:00:00;#Antiquité;#Habitats, architecture, édifices;fouille
526715;6530511;Poitou-Charentes;Charente;Chassenon;Bourg de Chassenon;2012-08-27 00:00:00;2012-10-31 00:00:00;#Antiquité;#Cultes et pratiques funéraires#Habitats, architecture, édifices;fouille
602037,46;7070804,428;Nord-Pas-de-Calais;Pas-de-Calais;Boulogne-sur-Mer;Crypte de la Basilique Notre-Dame de Boulogne-sur-Mer;2011-01-01 00:00:00;2012-11-01 00:00:00;#Antiquité#Moyen Âge#Moderne, Contemporain;#Cultes et pratiques funéraires#Organisation sociale et politique;fouille
618353,505;6755649,776;Centre;Loiret;Orléans;Ile de Loire entre duit Saint Charles et le pont George V;2012-09-16 00:00:00;2012-11-05 00:00:00;#Protohistoire#Antiquité#Moyen Âge#Moderne, Contemporain;#Agriculture, élevage#Habitats, architecture, édifices#Paysage et environnement#Peuplement, occupation espace;fouille
389974,599;6580166,355;Poitou-Charentes;Charente-Maritime;Andilly;rue Saint-Nicolas;2012-08-20;2012-11-16;#Protohistoire;#Habitats, architecture, édifices#Industrie, artisanat;fouille
446497,221;6513843,485;Poitou-Charentes;Charente;Bourg-Charente;Les Pièces de Monsieur Jarnac;2012-07-23 00:00:00;2012-11-30 00:00:00;#Paléolithique, Mésolithique#Antiquité#Moyen Âge;#Cultes et pratiques funéraires#Habitats, architecture, édifices#Industrie, artisanat;fouille
923241;6680463;Franche-Comté;Doubs;Rancenay;Sous la Grette;2012-10-15 00:00:00;2012-12-14 00:00:00;#Moyen Âge;#Habitats, architecture, édifices;fouille
561694,349;6929339,938;Haute-Normandie;Seine-Maritime;Rouen;Angle des rues Verte et Pouchet;2012-06-01 00:00:00;2012-12-31 00:00:00;#Moyen Âge;;fouille
853439,4;6692289,668;Bourgogne;Côte-d'Or;Dijon;Rue du Pont des Tanneries;2012-10-01 00:00:00;2013-02-28 00:00:00;#Moyen Âge#Moderne, Contemporain;#Habitats, architecture, édifices#Peuplement, occupation espace;fouille
468581,441;6895271,264;Basse-Normandie;Calvados;Moult;Le Val des Cigognes;2013-01-28 00:00:00;2013-03-08 00:00:00;#Néolithique#Protohistoire#Antiquité#Moyen Âge#Moderne, Contemporain;;fouille
364792,55;6804542,56;Bretagne;Ille-et-Vilaine;Ercé-près-Liffré;ZAC Le Bocage de l'Illet - tranche 1;2013-04-08 00:00:00;2013-06-07 00:00:00;#Protohistoire#Moyen Âge;#Cultes et pratiques funéraires#Habitats, architecture, édifices;fouille
427278;6922347;Basse-Normandie;Calvados;Port-en-Bessin-Huppain;Avenue du Général de Gaulle;2013-06-05 00:00:00;2013-06-27 00:00:00;#Antiquité;#Habitats, architecture, édifices#Peuplement, occupation espace#Vie quotidienne, usages;fouille
428935,78;6915610,38;Basse-Normandie;Calvados;Vaucelles;Le Chemin du Moulin Morin;2013-04-29 00:00:00;2013-06-28 00:00:00;#Néolithique#Protohistoire;#Cultes et pratiques funéraires#Habitats, architecture, édifices#Vie quotidienne, usages;fouille
254332,106;6742887,933;Bretagne;Morbihan;Bono;Mané Mourin;2013-03-04;2013-07-22 00:00:00;#Néolithique#Protohistoire;#Cultes et pratiques funéraires#Habitats, architecture, édifices;fouille
780740,499;6801248,121;Champagne-Ardenne;Aube;Troyes;Rue des Carmélites;;2013-08-15 00:00:00;#Protohistoire#Antiquité;#Cultes et pratiques funéraires#Vie quotidienne, usages;fouille
566700;6982000;Haute-Normandie;Seine-Maritime;Grèges;La Maison Blanche;;2013-08-30 00:00:00;;;fouille
719658;6707754;Bourgogne;Nièvre;Entrains-sur-Nohain;Rue Romaine;2013-06-19 00:00:00;2013-09-20 00:00:00;#Antiquité;#Habitats, architecture, édifices#Vie quotidienne, usages;fouille
774236,537;6277568,953;Languedoc-Roussillon;Hérault;Montpellier;Contournement ferroviaire Nîmes-Montpellier - La Cavalade;2013-04-01 00:00:00;2013-09-30 00:00:00;#Néolithique#Protohistoire#Antiquité#Moyen Âge;#Habitats, architecture, édifices#Vie quotidienne, usages;fouille
881078,868;6519934,447;Rhône-Alpes;Isère;Optevoz;Rue Philippe Tassier;2013-07-08 00:00:00;2013-10-11 00:00:00;#Néolithique#Protohistoire#Moyen Âge;;fouille
729419,996;6524915,213;Auvergne;Puy-de-Dôme;Lezoux;Les Colis;2013-06-03 00:00:00;2013-10-29 00:00:00;#Antiquité#Moyen Âge;#Habitats, architecture, édifices#Paysage et environnement;fouille
417445,491;6523444,2;Poitou-Charentes;Charente-Maritime;Saintes;Rue  Daniel-Massiou;;2013-10-31 00:00:00;#Antiquité;;fouille
931300;6839200;Lorraine;Meurthe-et-Moselle;Messein;Noires terres;2004-01-01 00:00:00;;#Moderne, Contemporain;#Archéologie des conflits;fouille
779930;6800170;Champagne-Ardenne;Aube;Troyes;Habitat antique et tannerie médiévale;2010-03-01;;#Antiquité#Moyen Âge#Moderne, Contemporain;#Habitats, architecture, édifices#Industrie, artisanat;fouille
716067,293;6514067,843;Auvergne;Puy-de-Dôme;Cournon-d'Auvergne;Les Queyriaux;2010-08-30 00:00:00;;#Néolithique#Protohistoire;#Peuplement, occupation espace#Vie quotidienne, usages;fouille
477663;3211945;Aquitaine;Dordogne;Boulazac;Boulazac;2011-11-01 00:00:00;;;#Arts, biens de prestige#Échange et transport#Peuplement, occupation espace;fouille
837738,401;6606778,328;Bourgogne;Saône-et-Loire;Martailly-lès-Brancion;Château;2012-01-01 00:00:00;;#Moyen Âge;#Habitats, architecture, édifices;fouille
500995,038;6622691,994;Poitou-Charentes;Vienne;Saint-Georges-lès-Baillargeaux;Les Gains;2012-02-29 00:00:00;;#Protohistoire#Antiquité;#Habitats, architecture, édifices#Peuplement, occupation espace;fouille
869668,97;6685851,154;Bourgogne;Côte-d'Or;Labergement-Foigney;Labergement-Foigney Champs Cottin;2012-09-01 00:00:00;;#Antiquité;#Agriculture, élevage#Habitats, architecture, édifices#Vie quotidienne, usages;fouille
781600;6793550;Champagne-Ardenne;Aube;Buchères;Parc logistique de l'Aube;2012-09-20 00:00:00;;#Néolithique#Protohistoire;#Arts, biens de prestige#Cultes et pratiques funéraires#Peuplement, occupation espace;fouille
659556;6876592;Ile-de-France;Val-d'Oise;Gonesse;Église Saint-Pierre-et-Saint-Paul;2013-01-14 00:00:00;;#Moyen Âge#Moderne, Contemporain;#Cultes et pratiques funéraires#Habitats, architecture, édifices;fouille
864992;6686933;Bourgogne;Côte-d'Or;Magny-sur-Tille;LGV Rhin-Rhône branche Est deuxième phase - Le Grand Pré, le Bas de l'Ampone;2013-03-18 00:00:00;;#Protohistoire#Antiquité#Moderne, Contemporain;#Cultes et pratiques funéraires#Habitats, architecture, édifices#Peuplement, occupation espace;fouille
918700;6245300;Provences-Alpes-Côte-d'Azur;Bouches-du-Rhône;Cuges-les-Pins;ZAC des Vigneaux;2013-03-25 00:00:00;;#Paléolithique, Mésolithique#Néolithique;#Cultes et pratiques funéraires#Habitats, architecture, édifices#Vie quotidienne, usages;fouille
652055,121;6861866,618;Ile-de-France;Paris;Paris;Paris, Préfecture de police, bâtiment d'accueil - 2 rue de Lutèce;2013-04-15 00:00:00;;#Antiquité#Moyen Âge#Moderne, Contemporain;#Cultes et pratiques funéraires#Habitats, architecture, édifices#Peuplement, occupation espace;fouille
647239,582;6495953,76;Limousin;Corrèze;Ussel;Le Theil;2013-05-21 00:00:00;;#Antiquité;#Habitats, architecture, édifices;fouille
653912,264;6891956,804;Ile-de-France;Val-d'Oise;Viarmes;Place Pierre Salvi;2013-06-03 00:00:00;;#Moyen Âge;#Habitats, architecture, édifices;fouille
989955;6733541;Franche-Comté;Territoire de Belfort;Belfort;Place d'Armes;2013-07-01 00:00:00;;#Moderne, Contemporain;#Habitats, architecture, édifices;fouille
171212;6792622;Bretagne;Finistère;Quimper;Kervouyec II;;;#Protohistoire;#Habitats, architecture, édifices#Vie quotidienne, usages;fouille
235872;6748449;Bretagne;Morbihan;Belz;Kerduelland;;;#Néolithique;#Organisation sociale et politique#Peuplement, occupation espace;fouille
242736;6810230;Bretagne;Côtes-d'Armor;Laniscat;Rosquelfen;;;#Protohistoire#Antiquité;#Arts, biens de prestige#Échange et transport#Vie quotidienne, usages;fouille
290290;6706080;Pays de la Loire;Loire-Atlantique;Guérande;Place de la Psalette - Collégiale St Aubin;;;#Antiquité#Moyen Âge;#Habitats, architecture, édifices#Peuplement, occupation espace;fouille
291529,818;6706049,723;Pays de la Loire;Loire-Atlantique;Guérande;ZAC de la Métairie de la Lande;;;#Moyen Âge#Moderne, Contemporain;#Habitats, architecture, édifices;fouille
351830;6789740;Bretagne;Ille-et-Vilaine;Rennes;Couvent des Jacobins;;;#Antiquité#Moyen Âge#Moderne, Contemporain;#Cultes et pratiques funéraires#Habitats, architecture, édifices;fouille
355574;6689305;Pays de la Loire;Loire-Atlantique;Nantes;Nantes Bouffay Neptune;;;#Antiquité#Moyen Âge#Moderne, Contemporain;#Échange et transport#Habitats, architecture, édifices#Industrie, artisanat;fouille
367830;6846855;Basse-Normandie;Manche;Le Mont-Saint-Michel;Le Mont-Saint-Michel, La Cour des Ecoles;;;#Moyen Âge;#Cultes et pratiques funéraires#Industrie, artisanat#Vie quotidienne, usages;fouille
367864;6846706;Basse-Normandie;Manche;Le Mont-Saint-Michel;Mont-Saint-Michel / Les Remparts - Tour Denis;;;#Moderne, Contemporain;#Habitats, architecture, édifices;fouille
380037;6776905;Bretagne;Ille-et-Vilaine;Bais;Un grand domaine gallo-romain;;;#Antiquité;#Agriculture, élevage#Cultes et pratiques funéraires#Habitats, architecture, édifices;fouille
384539;6707707;Pays de la Loire;Loire-Atlantique;Ancenis;ZAC de la Savinière;;;#Protohistoire;#Habitats, architecture, édifices;fouille
401483,879;6920057,216;Basse-Normandie;Calvados;Isigny-sur-Mer;Le Tuilley - La Campagne;;;#Protohistoire#Antiquité;#Habitats, architecture, édifices;fouille
417374,231;6421841,285;Aquitaine;Gironde;Bordeaux;Place Pey-Berland;;;#Moyen Âge;#Habitats, architecture, édifices;fouille
424124,349;6570264,032;Poitou-Charentes;Deux-Sèvres;Usseau;Rue de la Laiterie;;;#Moyen Âge;#Cultes et pratiques funéraires;fouille
431883,951;6713804,704;Pays de la Loire;Maine-et-Loire;Angers;Château d'Angers;;;#Néolithique#Protohistoire#Antiquité#Moyen Âge;#Habitats, architecture, édifices;fouille
471010;6766000;Pays de la Loire;Sarthe;Vallon-sur-Gée;LGV Bretagne-Pays de la Loire - La Bourlerie;;;#Antiquité;#Habitats, architecture, édifices;fouille
487922,264;6778424,357;Pays de la Loire;Sarthe;La Milesse;LGV Bretagne-Pays de la Loire - La Ronce;;;#Protohistoire#Antiquité#Moyen Âge;#Industrie, artisanat;fouille
491305;6771212;Pays de la Loire;Sarthe;Le Mans;Théâtre de Jacobins;;;#Moderne, Contemporain;#Archéologie des conflits#Organisation sociale et politique;fouille
492460;6775375;Pays de la Loire;Sarthe;Neuville-sur-Sarthe;Chapeau;;;#Antiquité;#Cultes et pratiques funéraires;fouille
497381;6897649;Basse-Normandie;Calvados;Lisieux;Quai des Remparts;;;#Moyen Âge#Moderne, Contemporain;;fouille
497686,623;6616435,479;Poitou-Charentes;Vienne;Poitiers;La Folie;;;#Paléolithique, Mésolithique;#Habitats, architecture, édifices#Sciences et méthodes de l'archéologie;fouille
502176;6421631;Aquitaine;Dordogne;Bergerac;Les  Vaures;;;#Néolithique;;fouille
506370,539;6421344,152;Aquitaine;Dordogne;Creysse;Déviation de la R.N. 21;;;#Paléolithique, Mésolithique#Néolithique;#Industrie, artisanat#Peuplement, occupation espace;fouille
546771;6335990;Midi-Pyrénées;Tarn-et-Garonne;Moissac;Le Patus - rue de l'Abbaye;;;#Moyen Âge;#Habitats, architecture, édifices;fouille
566708,49;6221555,68;Midi-Pyrénées;Ariège;Le Mas-d'Azil;Grotte du Mas d'Azil;;;#Paléolithique, Mésolithique;#Peuplement, occupation espace#Vie quotidienne, usages;fouille
574370,605;6278386,884;Languedoc-Roussillon;Aude;Narbonne;Tribunal d'instance;;;#Antiquité#Moyen Âge;#Habitats, architecture, édifices;fouille
577070;6794480;Centre;Eure-et-Loir;Alluyes;La Pierre Aiguë;;;;;fouille
579618;6898536;Haute-Normandie;Eure;Aubevoye;La chartreuse;;;#Néolithique;#Arts, biens de prestige#Cultes et pratiques funéraires#Habitats, architecture, édifices;fouille
600257;6803857;Centre;Eure-et-Loir;Allonnes;Contournement;;;#Antiquité#Moyen Âge;#Cultes et pratiques funéraires#Peuplement, occupation espace;fouille
604375,361;7047575,41;Nord-Pas-de-Calais;Pas-de-Calais;Étaples;Chemin de la Motte Ouest;;;#Moderne, Contemporain;#Archéologie des conflits;fouille
605258;6798465;Centre;Eure-et-Loir;Prasville;Vers Chesnay - La romanisation de la Beauce à Prasville;;;#Protohistoire#Antiquité;#Habitats, architecture, édifices#Industrie, artisanat;fouille
609143,973;7092827,37;Nord-Pas-de-Calais;Pas-de-Calais;Escalles;Mont d'Hubert;;;#Paléolithique, Mésolithique#Moderne, Contemporain;#Peuplement, occupation espace#Vie quotidienne, usages;fouille
616455,513;6761304,299;Centre;Loiret;Saran;Lac de la Médecinerie;;;;;fouille
617981;6756227;Centre;Loiret;Orléans;Deuxième ligne du tramway - Place de Gaulle;;;#Antiquité#Moyen Âge#Moderne, Contemporain;#Habitats, architecture, édifices#Peuplement, occupation espace;fouille
619624,564;7004320,804;Picardie;Somme;Caours;Eclipse;;;#Paléolithique, Mésolithique;#Industrie, artisanat#Paysage et environnement#Peuplement, occupation espace#Vie quotidienne, usages;fouille
634079,203;6867141,067;Ile-de-France;Yvelines;Saint-Germain-en-Laye;Domaine national : Petite Terrasse et Grand rond-point;;;#Moderne, Contemporain;#Paysage et environnement;fouille
640005;6850980;Ile-de-France;Essonne;Saclay;Val d'Albian, La Grande Mare, La Mare aux Saules;;;#Protohistoire#Moyen Âge;#Peuplement, occupation espace;fouille
647446;6858106;Ile-de-France;Hauts-de-Seine;Vanves;Rue Gaudray;;;#Antiquité#Moyen Âge;#Habitats, architecture, édifices#Vie quotidienne, usages;fouille
648493;6862623;Ile-de-France;Paris;Paris;Musée du Quai Branly;;;#Antiquité;#Chasse, pêche, cueillette#Paysage et environnement#Peuplement, occupation espace;fouille
648837;6885317;Ile-de-France;Val-d'Oise;Baillet-en-France;Centre de vacances CNPO;;;#Moderne, Contemporain;#Arts, biens de prestige#Organisation sociale et politique;fouille
651804;6862433;Ile-de-France;Paris;Paris;Rue de Rivoli;;;;;fouille
651921,28;6860625,83;Ile-de-France;Paris;Paris;22 rue d'Ulm / 9-11 rue Pierre et Marie Curie / 193 rue Saint Jacques;;;#Antiquité;#Habitats, architecture, édifices#Peuplement, occupation espace#Vie quotidienne, usages;fouille
652736;6861014;Ile-de-France;Paris;Paris;Collège des Bernardins;;;;;fouille
657870;6857662;Ile-de-France;Val-de-Marne;Saint-Maurice;53-57, rue du Maréchal-Leclerc;;;#Moderne, Contemporain;#Cultes et pratiques funéraires;fouille
658727;6833715;Ile-de-France;Essonne;Lisses;ZAC du bois de Chaland;;;;;fouille
658832;6874939;Ile-de-France;Val-d'Oise;Bonneuil-en-France;Zone de servitude ILS;;;#Moyen Âge;;fouille
664602;6834711;Ile-de-France;Essonne;Saint-Pierre-du-Perray;Le Buisson Ribeau, Lac VIII;;;#Antiquité;#Échange et transport#Habitats, architecture, édifices;fouille
672812;6832684;Ile-de-France;Seine-et-Marne;Vert-Saint-Denis;Saint-Clément, La Bichère;;;#Protohistoire#Antiquité#Moyen Âge;#Échange et transport#Habitats, architecture, édifices;fouille
675980,29;6435482,04;Languedoc-Roussillon;Pyrénées-Orientales;Amélie-les-Bains-Palalda;Camps de Las Basses;;;#Protohistoire#Antiquité;#Cultes et pratiques funéraires#Habitats, architecture, édifices#Industrie, artisanat;fouille
682409;6862066;Ile-de-France;Seine-et-Marne;Montévrain;Les Vingt-deux-arpents;;;#Antiquité#Moyen Âge;#Habitats, architecture, édifices#Industrie, artisanat#Peuplement, occupation espace#Vie quotidienne, usages;fouille
687320,012;6924341,555;Picardie;Oise;Compiègne;29-33 rue Solférino;;;#Moyen Âge;#Habitats, architecture, édifices;fouille
694570;6963261;Picardie;Somme;Mesnil-Saint-Nicaise;Chemin Bezard;;;#Antiquité;#Cultes et pratiques funéraires, Sciences et méthodes de l'archéologie;fouille
699660,604;6992026,16;Picardie;Somme;Étricourt-Manancourt;Etricourt-Manancourt;;;#Paléolithique, Mésolithique;#Peuplement, occupation espace#Vie quotidienne, usages;fouille
705683,565;6922434,437;Picardie;Oise;Attichy;Le Buissonnet;;;#Protohistoire;#Cultes et pratiques funéraires;fouille
714639,21;6252083,98;Languedoc-Roussillon;Hérault;Béziers;Le Crès Néolithique II;;;#Néolithique;#Cultes et pratiques funéraires;fouille
717167,956;6520700,489;Auvergne;Puy-de-Dôme;Pont-du-Château;Champ Lamet 6-Gefco;;;#Néolithique;#Cultes et pratiques funéraires;fouille
725508,399;6292594,56;Languedoc-Roussillon;Hérault;Lodève;Immeuble Barral Quartier Cathédral;;;#Antiquité#Moyen Âge#Moderne, Contemporain;#Habitats, architecture, édifices;fouille
726802,406;6956418,595;Picardie;Aisne;Vendeuil;La Prairie de Montigny;;;#Néolithique;#Cultes et pratiques funéraires#Échange et transport#Paysage et environnement;fouille
736551,98;7024454,6;Nord-Pas-de-Calais;Nord;Famars;La Rhonelle;;;#Antiquité;#Cultes et pratiques funéraires#Habitats, architecture, édifices#Industrie, artisanat;fouille
786215;6594849;Bourgogne;Saône-et-Loire;Paray-le-Monial;Aux origines de la basilique de Paray-le-Monial;;;#Moyen Âge;#Habitats, architecture, édifices;fouille
798605;6651724;Bourgogne;Saône-et-Loire;Autun;Faubourg d'Arroux;;;#Antiquité;#Habitats, architecture, édifices#Industrie, artisanat#Vie quotidienne, usages;fouille
800434,577;6651599,915;Bourgogne;Saône-et-Loire;Autun;Autun Pont l'Evêque;;;#Antiquité;#Cultes et pratiques funéraires;fouille
848960;630360;Provences-Alpes-Côte-d'Azur;Bouches-du-Rhône;Saint-Rémy-de-Provence;Zac d'Ussol;;;#Antiquité;#Cultes et pratiques funéraires#Habitats, architecture, édifices#Vie quotidienne, usages;fouille
853770;6520385;Rhône-Alpes;Rhône;Décines-Charpieu;Le Montout OL Land TR. 1;;;#Protohistoire#Antiquité;#Cultes et pratiques funéraires#Habitats, architecture, édifices;fouille
854220;6693746;Bourgogne;Côte-d'Or;Dijon;Boulevard de la Trémouille - Place de la République;;;#Moyen Âge;#Habitats, architecture, édifices#Organisation sociale et politique;fouille
884414;6664200;Franche-Comté;Jura;Choisey;Choisey Les Champins;;;#Protohistoire#Antiquité;#Cultes et pratiques funéraires#Habitats, architecture, édifices;fouille
892002,39;6247009,59;Provences-Alpes-Côte-d'Azur;Bouches-du-Rhône;Marseille;Collège du Vieux-Port;;;#Protohistoire;#Échange et transport#Habitats, architecture, édifices#Industrie, artisanat#Peuplement, occupation espace;fouille
892357,767;6247084,37;Provences-Alpes-Côte-d'Azur;Bouches-du-Rhône;Marseille;Maison diamantée;;;#Moderne, Contemporain;#Habitats, architecture, édifices;fouille
892361,071;6247126,21;Provences-Alpes-Côte-d'Azur;Bouches-du-Rhône;Marseille;Pavillon Daviel;;;#Moyen Âge#Moderne, Contemporain;#Habitats, architecture, édifices;fouille
893092,289;6247219,898;Provences-Alpes-Côte-d'Azur;Bouches-du-Rhône;Marseille;25  rue Thubaneau - Le jeu de paume;;;#Moderne, Contemporain;#Habitats, architecture, édifices;fouille
896093,82;6294355,28;Provences-Alpes-Côte-d'Azur;Vaucluse;Villelaure;La Tuilière;;;#Antiquité;#Arts, biens de prestige#Habitats, architecture, édifices#Vie quotidienne, usages;fouille
931476,771;6893907,317;Lorraine;Moselle;Metz;Rue Mazarin;;;#Antiquité#Moyen Âge#Moderne, Contemporain;#Cultes et pratiques funéraires#Habitats, architecture, édifices;fouille
932400;6896200;Lorraine;Moselle;Metz;Larry;;;#Antiquité;#Habitats, architecture, édifices#Vie quotidienne, usages;fouille
933590;6849170;Lorraine;Meurthe-et-Moselle;Nancy;Îlot Berger-Levrault;;;#Moderne, Contemporain;#Cultes et pratiques funéraires;fouille
945800;6837600;Lorraine;Meurthe-et-Moselle;Rosières-aux-Salines;28-30 rue du Colonel Thiébaut;;;;;fouille
1033204;6284746;Provences-Alpes-Côte-d'Azur;Alpes Maritimes;Antibes;Le pré-aux-Pêcheurs;;;#Antiquité;#Échange et transport;fouille
1050262,86;6841786,58;Alsace;Bas-Rhin;Strasbourg;Place du Château;;;#Antiquité#Moyen Âge;#Archéologie des conflits#Habitats, architecture, édifices;fouille
